{
  "version": 0.6,
  "generator": "Overpass API 0.7.62.1 084b4234",
  "osm3s": {
    "timestamp_osm_base": "2024-09-27T15:27:09Z",
    "timestamp_areas_base": "2024-09-24T16:29:52Z",
    "copyright": "The data included in this document is from www.openstreetmap.org. The data is made available under ODbL."
  },
  "elements": [
    {
      "type": "node",
      "id": 430783319,
      "lat": -8.6694066,
      "lon": 115.2176394,
      "tags": {
        "addr:city": "Denpasar",
        "addr:housenumber": "20",
        "addr:postcode": "80210",
        "addr:street": "P.B. Sudirman",
        "amenity": "fast_food",
        "brand": "McDonald's",
        "brand:wikidata": "Q38076",
        "brand:wikipedia": "en:McDonald's",
        "cuisine": "burger",
        "delivery": "yes",
        "drive_through": "no",
        "name": "McDonald's",
        "opening_hours": "24/7",
        "operator": "PT McDonald's Indonesia",
        "phone": "+62 361 234890",
        "takeaway": "yes"
      }
    },
    {
      "type": "node",
      "id": 436251315,
      "lat": -8.6742695,
      "lon": 115.2591865,
      "tags": {
        "addr:city": "Denpasar",
        "addr:housenumber": "11",
        "addr:postcode": "80115",
        "addr:street": "Hang Tuah",
        "alt_name": "Kentucky Fried Chicken",
        "amenity": "fast_food",
        "brand": "KFC",
        "brand:wikidata": "Q524757",
        "brand:wikipedia": "en:KFC",
        "cuisine": "chicken",
        "delivery": "yes",
        "drive_through": "no",
        "is_in": "Sanur,South Bali,Bali,Indonesia",
        "name": "KFC",
        "outdoor_seating": "no",
        "phone": "+62 361 285874",
        "smoking": "no",
        "takeaway": "yes"
      }
    },
    {
      "type": "node",
      "id": 2885231122,
      "lat": -8.7053237,
      "lon": 115.2600517,
      "tags": {
        "addr:city": "Denpasar",
        "addr:housenumber": "108",
        "addr:postcode": "80228",
        "addr:street": "Danau Poso",
        "amenity": "restaurant",
        "cuisine": "international",
        "name": "The Fire Station",
        "opening_hours": "Mo-Sa 16:00-01:00; Su 12:00-01:00",
        "phone": "+62 361 285675",
        "website": "https://www.tfsbali.com/"
      }
    },
    {
      "type": "node",
      "id": 3173930849,
      "lat": -8.6700716,
      "lon": 115.2174236,
      "tags": {
        "addr:city": "Denpasar",
        "addr:housenumber": "4G",
        "addr:street": "Dewi Sartika",
        "alt_name": "Kentucky Fried Chicken",
        "amenity": "fast_food",
        "brand": "KFC",
        "brand:wikidata": "Q524757",
        "brand:wikipedia": "en:KFC",
        "cuisine": "chicken",
        "name": "KFC",
        "opening_hours": "Mo-Fr 08:00-22:00; Sa-Su 08:00-22:30",
        "operator": "PT Fastfood Indonesia",
        "smoking": "no",
        "source": "Local knowledge. Adress and opening hours share with rest of complex.",
        "takeaway": "yes"
      }
    },
    {
      "type": "node",
      "id": 3175963484,
      "lat": -8.6587285,
      "lon": 115.2122954,
      "tags": {
        "addr:city": "Denpasar",
        "addr:housenumber": "59",
        "addr:street": "Jalan Hasanuddin",
        "alt_name": "Kentucky Fried Chicken",
        "amenity": "fast_food",
        "brand": "KFC",
        "brand:wikidata": "Q524757",
        "brand:wikipedia": "en:KFC",
        "cuisine": "chicken",
        "name": "KFC",
        "opening_hours": "24/7",
        "operator": "PT Fastfood Indonesia",
        "smoking": "no",
        "source": "Local knowledge and KFC Indonesia website for address",
        "takeaway": "yes",
        "website": "https://kfcku.com/"
      }
    },
    {
      "type": "node",
      "id": 3182489150,
      "lat": -8.6787255,
      "lon": 115.2052195,
      "tags": {
        "addr:city": "Denpasar",
        "addr:housenumber": "175",
        "addr:postcode": "80114",
        "addr:street": "Jalan Teuku Umar",
        "amenity": "cafe",
        "internet_access": "wlan",
        "name": "J.Co",
        "phone": "08158898000",
        "source": "Survey"
      }
    },
    {
      "type": "node",
      "id": 3184156273,
      "lat": -8.680855,
      "lon": 115.2010404,
      "tags": {
        "addr:city": "Denpasar",
        "addr:housenumber": "218",
        "addr:street": "Jalan Teuku Umar",
        "amenity": "fast_food",
        "cuisine": "pizza",
        "name": "Papa Ron's Pizza",
        "source": "Survey",
        "website": "https://www.paparonspizza.com/"
      }
    },
    {
      "type": "node",
      "id": 3188105235,
      "lat": -8.6688732,
      "lon": 115.2131561,
      "tags": {
        "addr:city": "Denpasar",
        "addr:housenumber": "Blok A No. 8 A",
        "addr:postcode": "80113",
        "addr:street": "Jalan Teuku Umar",
        "amenity": "cafe",
        "cuisine": "regional",
        "name": "NAV Karaoke",
        "phone": "+62 361 221721",
        "source": "Survey",
        "website": "https://nav.co.id/"
      }
    },
    {
      "type": "node",
      "id": 3207441966,
      "lat": -8.675481,
      "lon": 115.2075205,
      "tags": {
        "addr:city": "Denpasar",
        "addr:housenumber": "65C",
        "addr:street": "Jalan Teuku Umar",
        "amenity": "restaurant",
        "cuisine": "regional",
        "name": "Mie Goreng Makassar",
        "opening_hours": "Mo-Su 08:00-21:30",
        "smoking": "yes",
        "source": "Survey, local knowledge"
      }
    },
    {
      "type": "node",
      "id": 3251556077,
      "lat": -8.6758446,
      "lon": 115.2155038,
      "tags": {
        "addr:city": "Denpasar",
        "addr:housenumber": "171C",
        "addr:street": "Jalan Diponegoro",
        "amenity": "restaurant",
        "cuisine": "chinese",
        "name": "Diponegoro Dimsum",
        "source": "Survey"
      }
    },
    {
      "type": "node",
      "id": 3278222028,
      "lat": -8.6659845,
      "lon": 115.2147267,
      "tags": {
        "addr:city": "Denpasar",
        "addr:housenumber": "C15",
        "addr:street": "Jalan Diponegoro",
        "amenity": "restaurant",
        "cuisine": "american",
        "name": "Ayam Campus",
        "source": "Survey"
      }
    },
    {
      "type": "node",
      "id": 3285647957,
      "lat": -8.6738109,
      "lon": 115.2323871,
      "tags": {
        "addr:city": "Denpasar",
        "addr:housenumber": "9A",
        "addr:street": "Tukad Musi",
        "amenity": "restaurant",
        "cuisine": "regional",
        "name": "Kedai Kelle",
        "opening_hours": "Mo 15:00-00:00, Tu-Su 10:00-00:00"
      }
    },
    {
      "type": "node",
      "id": 3292237942,
      "lat": -8.6372979,
      "lon": 115.2357792,
      "tags": {
        "addr:city": "Denpasar",
        "addr:housenumber": "147",
        "addr:street": "Jalan Noja",
        "amenity": "cafe",
        "name": "Fresco Sports Cafe & Grill"
      }
    },
    {
      "type": "node",
      "id": 3675159810,
      "lat": -8.6700227,
      "lon": 115.2233179,
      "tags": {
        "addr:city": "Denpasar",
        "addr:housenumber": "82",
        "addr:street": "Tantular Barat",
        "amenity": "cafe",
        "cuisine": "regional",
        "internet_access": "wlan",
        "name": "Vapor Juice Bar",
        "smoking": "outside"
      }
    },
    {
      "type": "node",
      "id": 3749224235,
      "lat": -8.6606967,
      "lon": 115.2149521,
      "tags": {
        "addr:city": "Denpasar",
        "addr:housenumber": "46",
        "addr:street": "Jalan Diponegoro",
        "amenity": "restaurant",
        "cuisine": "regional",
        "name": "Sate Babi Melati"
      }
    },
    {
      "type": "node",
      "id": 3750087321,
      "lat": -8.6618823,
      "lon": 115.2189423,
      "tags": {
        "addr:city": "Denpasar",
        "addr:housenumber": "Pertokoan Udayana 32A-B",
        "addr:street": "Letda Made Putra",
        "amenity": "restaurant",
        "capacity": "36",
        "cuisine": "healthy_food",
        "delivery": "yes",
        "name": "Warung Sehat",
        "note": "Closed on Monday",
        "opening_hours": "10:00-21:00",
        "smoking": "outside",
        "takeaway": "yes"
      }
    },
    {
      "type": "node",
      "id": 3758642908,
      "lat": -8.6810994,
      "lon": 115.1998572,
      "tags": {
        "addr:city": "Denpasar",
        "addr:housenumber": "230",
        "addr:street": "Jalan Teuku Umar",
        "amenity": "restaurant",
        "cuisine": "regional",
        "name": "Kedai Nasi Uduk & Mie Bandung"
      }
    },
    {
      "type": "node",
      "id": 3805220649,
      "lat": -8.6820618,
      "lon": 115.1966734,
      "tags": {
        "addr:city": "Denpasar",
        "addr:country": "ID",
        "addr:housenumber": "270",
        "addr:postcode": "80113",
        "addr:province": "Bali",
        "addr:street": "Jalan Imam Bonjol",
        "amenity": "restaurant",
        "cuisine": "asian;regional",
        "name": "Siang Malam (Masakan Padang)",
        "phone": "081 337 529 223",
        "website": "https://rmsiangmalam.com/",
        "wheelchair": "limited"
      }
    },
    {
      "type": "node",
      "id": 3848668266,
      "lat": -8.6363711,
      "lon": 115.2384994,
      "tags": {
        "addr:city": "Denpasar",
        "addr:housenumber": "492",
        "addr:street": "Jalan Bypass Gatot Subroto",
        "amenity": "restaurant",
        "cuisine": "regional",
        "name": "Bakmi Pancoran"
      }
    },
    {
      "type": "node",
      "id": 3964509657,
      "lat": -8.6508667,
      "lon": 115.1892354,
      "tags": {
        "addr:city": "Denpasar",
        "addr:housenumber": "206",
        "addr:postcode": "80117",
        "addr:street": "Jalan Gunung Agung",
        "amenity": "cafe",
        "email": "nonikedai@gmail.com",
        "name": "Kedai Noni",
        "phone": "08124669494",
        "website": "www.kedainoni.weebly.com"
      }
    },
    {
      "type": "node",
      "id": 4157285066,
      "lat": -8.681159,
      "lon": 115.1992432,
      "tags": {
        "addr:city": "Denpasar",
        "addr:housenumber": "236",
        "addr:street": "Jalan Teuku Umar",
        "amenity": "restaurant",
        "cuisine": "regional",
        "name": "Bakwan Teuku Umar"
      }
    },
    {
      "type": "node",
      "id": 4171856852,
      "lat": -8.6793646,
      "lon": 115.2149518,
      "tags": {
        "addr:city": "Denpasar",
        "addr:housenumber": "14",
        "addr:street": "Jalan Raya Sesetan",
        "amenity": "restaurant",
        "cuisine": "regional",
        "name": "Nasi Guling Rebo Manis"
      }
    },
    {
      "type": "node",
      "id": 4171857222,
      "lat": -8.6793513,
      "lon": 115.2152795,
      "tags": {
        "addr:city": "Denpasar",
        "addr:housenumber": "31",
        "addr:street": "Jalan Raya Sesetan",
        "amenity": "restaurant",
        "cuisine": "regional",
        "delivery": "no",
        "name": "Ayam Tango",
        "opening_hours": "Mo-Fr 13:00-23:00; Sa 15:00-23:00; Su off",
        "smoking": "yes",
        "takeaway": "yes"
      }
    },
    {
      "type": "node",
      "id": 4187243499,
      "lat": -8.6696924,
      "lon": 115.2140519,
      "tags": {
        "addr:city": "Denpasar",
        "addr:housenumber": "1",
        "addr:street": "Jalan Teuku Umar",
        "amenity": "fast_food",
        "brand": "Burger King",
        "brand:wikidata": "Q177054",
        "brand:wikipedia": "en:Burger King",
        "cuisine": "burger",
        "delivery": "no",
        "drive_through": "no",
        "name": "Burger King",
        "opening_hours": "Mo-Su 10:00-22:00",
        "smoking": "no",
        "takeaway": "yes"
      }
    },
    {
      "type": "node",
      "id": 4196577571,
      "lat": -8.6355758,
      "lon": 115.2197253,
      "tags": {
        "addr:city": "Denpasar",
        "addr:housenumber": "306C",
        "addr:postcode": "80239",
        "addr:street": "Jalan Bypass Gatot Subroto",
        "amenity": "fast_food",
        "cuisine": "pizza",
        "delivery": "yes",
        "drive_through": "no",
        "name": "Domino's Pizza",
        "opening_hours": "Mo-Su 10:00-23:00",
        "phone": "+62 361 9009148",
        "takeaway": "yes",
        "wheelchair": "no"
      }
    },
    {
      "type": "node",
      "id": 4236778194,
      "lat": -8.681915,
      "lon": 115.1929009,
      "tags": {
        "addr:city": "Denpasar",
        "addr:housenumber": "28B-C",
        "addr:street": "Jalan Teuku Umar Barat",
        "amenity": "restaurant",
        "cuisine": "regional",
        "name": "Bebek Goreng Condong Roso"
      }
    },
    {
      "type": "node",
      "id": 4236778230,
      "lat": -8.6814451,
      "lon": 115.1930528,
      "tags": {
        "addr:city": "Denpasar",
        "addr:housenumber": "23C-D",
        "addr:street": "Jalan Teuku Umar Barat",
        "amenity": "restaurant",
        "cuisine": "regional",
        "name": "Nasi Tempong Indra",
        "wheelchair": "no"
      }
    },
    {
      "type": "node",
      "id": 4236778277,
      "lat": -8.68148,
      "lon": 115.1919158,
      "tags": {
        "addr:city": "Denpasar",
        "addr:housenumber": "88A",
        "addr:street": "Jalan Teuku Umar Barat",
        "amenity": "restaurant",
        "cuisine": "chinese",
        "delivery": "no",
        "name": "Depot Loy Yen",
        "takeaway": "yes"
      }
    },
    {
      "type": "node",
      "id": 4236778281,
      "lat": -8.6814531,
      "lon": 115.1918216,
      "tags": {
        "addr:city": "Denpasar",
        "addr:housenumber": "168B",
        "addr:postcode": "80119",
        "addr:street": "Jalan Teuku Umar Barat",
        "amenity": "fast_food",
        "cuisine": "pizza",
        "name": "Domino's Pizza",
        "opening_hours": "Mo-Su 10:00-24:00",
        "wheelchair": "no"
      }
    },
    {
      "type": "node",
      "id": 4249818178,
      "lat": -8.6791699,
      "lon": 115.2071243,
      "tags": {
        "addr:city": "Denpasar",
        "addr:housenumber": "33B",
        "addr:postcode": "80114",
        "addr:street": "Jalan Pulau Kawe",
        "amenity": "cafe",
        "internet_access": "yes",
        "name": "Cafe Me",
        "smoking": "outside"
      }
    },
    {
      "type": "node",
      "id": 4278134148,
      "lat": -8.6595838,
      "lon": 115.20185,
      "tags": {
        "addr:city": "Denpasar",
        "addr:housenumber": "100",
        "addr:street": "Jalan Gunung Batukaru",
        "amenity": "restaurant",
        "name": "Sari Minang",
        "wheelchair": "limited"
      }
    },
    {
      "type": "node",
      "id": 4409152584,
      "lat": -8.6810555,
      "lon": 115.1883856,
      "tags": {
        "addr:city": "Denpasar",
        "addr:housenumber": "337",
        "addr:postcode": "80114",
        "addr:street": "Jalan Teuku Umar Barat",
        "amenity": "cafe",
        "name": "9/11 Cafe & Concept Store",
        "phone": "0361 4717481",
        "wheelchair": "no"
      }
    },
    {
      "type": "node",
      "id": 4409400973,
      "lat": -8.7108847,
      "lon": 115.2187273,
      "tags": {
        "addr:city": "Denpasar",
        "addr:housenumber": "626",
        "addr:postcode": "80223",
        "addr:street": "Jalan Raya Sesetan",
        "amenity": "restaurant",
        "cuisine": "chinese",
        "name": "Aroma Medan",
        "phone": "0361 727393"
      }
    },
    {
      "type": "node",
      "id": 4409567927,
      "lat": -8.6692456,
      "lon": 115.2128495,
      "tags": {
        "addr:city": "Denpasar",
        "addr:housenumber": "10",
        "addr:postcode": "80114",
        "addr:street": "Jalan Teuku Umar",
        "amenity": "restaurant",
        "name": "Ayam Bakar Taliwang Baru",
        "phone": "0361 263031"
      }
    },
    {
      "type": "node",
      "id": 4409570159,
      "lat": -8.6651863,
      "lon": 115.2392937,
      "tags": {
        "addr:city": "Denpasar",
        "addr:housenumber": "18",
        "addr:postcode": "80239",
        "addr:street": "Jalan Merdeka X",
        "amenity": "restaurant",
        "name": "Ayam Bakar Wong Solo",
        "phone": "0361 231191",
        "wheelchair": "limited"
      }
    },
    {
      "type": "node",
      "id": 4410773591,
      "lat": -8.6811848,
      "lon": 115.2258251,
      "tags": {
        "addr:city": "Denpasar",
        "addr:housenumber": "63",
        "addr:postcode": "80225",
        "addr:street": "Tukad Pakerisan",
        "amenity": "restaurant",
        "name": "Bakso Herman"
      }
    },
    {
      "type": "node",
      "id": 4411143212,
      "lat": -8.7034939,
      "lon": 115.2195978,
      "tags": {
        "addr:city": "Denpasar",
        "addr:housenumber": "260",
        "addr:postcode": "80223",
        "addr:street": "Jalan Raya Sesetan",
        "amenity": "cafe",
        "name": "Cafe Cream",
        "phone": "+62 0361 720449"
      }
    },
    {
      "type": "node",
      "id": 4412613902,
      "lat": -8.6904184,
      "lon": 115.1901868,
      "tags": {
        "addr:city": "Denpasar",
        "addr:housenumber": "350",
        "addr:postcode": "80361",
        "addr:street": "Jalan Imam Bonjol",
        "amenity": "restaurant",
        "cuisine": "regional",
        "name": "Depot Gimbo Babi Asap",
        "phone": "0361 483402",
        "wheelchair": "yes"
      }
    },
    {
      "type": "node",
      "id": 4412860375,
      "lat": -8.6540525,
      "lon": 115.2134428,
      "tags": {
        "addr:city": "Denpasar",
        "addr:housenumber": "78",
        "addr:postcode": "80231",
        "addr:street": "Jalan Kartini",
        "amenity": "restaurant",
        "name": "Kartini Depot",
        "phone": "+62 361 231318"
      }
    },
    {
      "type": "node",
      "id": 4414252203,
      "lat": -8.6850736,
      "lon": 115.1895633,
      "tags": {
        "addr:city": "Denpasar",
        "addr:housenumber": "18",
        "addr:postcode": "80119",
        "addr:street": "Jalan Gunung Soputan I",
        "amenity": "restaurant",
        "name": "Ganidha Resto & Lounge",
        "phone": "0361 8466657"
      }
    },
    {
      "type": "node",
      "id": 4414390657,
      "lat": -8.6449839,
      "lon": 115.1857135,
      "tags": {
        "addr:city": "Denpasar",
        "addr:housenumber": "53",
        "addr:postcode": "80115",
        "addr:street": "Jalan Kebo Iwa",
        "amenity": "restaurant",
        "name": "Gochi Chiken House",
        "phone": "0361 4715067"
      }
    },
    {
      "type": "node",
      "id": 4415966605,
      "lat": -8.6658798,
      "lon": 115.233489,
      "tags": {
        "addr:city": "Denpasar",
        "addr:housenumber": "44",
        "addr:postcode": "80234",
        "addr:street": "Jalan Drupadi",
        "amenity": "restaurant",
        "name": "Hanamasa - Drupadi",
        "phone": "0361 264960"
      }
    },
    {
      "type": "node",
      "id": 4421391630,
      "lat": -8.6670125,
      "lon": 115.2358101,
      "tags": {
        "addr:city": "Denpasar",
        "addr:housenumber": "85",
        "addr:postcode": "80361",
        "addr:street": "Cok Agung Tresna",
        "amenity": "restaurant",
        "name": "Restoran Renon",
        "phone": "+62 361 261364",
        "wheelchair": "no"
      }
    },
    {
      "type": "node",
      "id": 4421398780,
      "lat": -8.6807721,
      "lon": 115.2019862,
      "tags": {
        "addr:city": "Denpasar",
        "addr:housenumber": "212",
        "addr:postcode": "80113",
        "addr:street": "Jalan Teuku Umar",
        "amenity": "restaurant",
        "name": "JEBAK (Jejak Bali Kuliner)",
        "phone": "0361 9382111"
      }
    },
    {
      "type": "node",
      "id": 4421527320,
      "lat": -8.6355834,
      "lon": 115.218749,
      "tags": {
        "addr:city": "Denpasar",
        "addr:housenumber": "326",
        "addr:postcode": "80113",
        "addr:street": "Jalan Bypass Gatot Subroto",
        "amenity": "restaurant",
        "name": "Rumah Makan Kedaton",
        "phone": "+62 361 425009",
        "wheelchair": "no"
      }
    },
    {
      "type": "node",
      "id": 4423078312,
      "lat": -8.6989996,
      "lon": 115.2534156,
      "tags": {
        "addr:city": "Denpasar",
        "addr:housenumber": "4",
        "addr:postcode": "80224",
        "addr:street": "Jl. Kutat Lestari",
        "amenity": "restaurant",
        "name": "Warung Khrisna",
        "phone": "0361 281661"
      }
    },
    {
      "type": "node",
      "id": 4425079640,
      "lat": -8.6354706,
      "lon": 115.2310373,
      "tags": {
        "addr:city": "Denpasar",
        "addr:housenumber": "300A",
        "addr:street": "Jalan Bypass Gatot Subroto",
        "amenity": "cafe",
        "diet:vegetarian": "yes",
        "name": "Marble Coffee"
      }
    },
    {
      "type": "node",
      "id": 4457428321,
      "lat": -8.637611,
      "lon": 115.1967834,
      "tags": {
        "addr:city": "Denpasar",
        "addr:housenumber": "M",
        "addr:street": "Jalan Raya Buluh Indah",
        "amenity": "restaurant",
        "cuisine": "noodle",
        "name": "Mie Pangsit Medan Thien Thien Hao"
      }
    },
    {
      "type": "node",
      "id": 4469412225,
      "lat": -8.6546396,
      "lon": 115.2185713,
      "tags": {
        "addr:city": "Denpasar",
        "addr:housenumber": "14",
        "addr:street": "Kaliasem",
        "amenity": "restaurant",
        "cuisine": "regional",
        "name": "Sate Kambing Sudi Mampir"
      }
    },
    {
      "type": "node",
      "id": 4494434427,
      "lat": -8.6696779,
      "lon": 115.2152203,
      "tags": {
        "addr:city": "Denpasar",
        "addr:housenumber": "1",
        "addr:street": "Jalan Teuku Umar",
        "amenity": "cafe",
        "cuisine": "coffee_shop",
        "internet_access": "wlan",
        "name": "Starbucks",
        "opening_hours": "Mo-Su 08:30-22:00",
        "smoking": "no"
      }
    },
    {
      "type": "node",
      "id": 4494434430,
      "lat": -8.6696805,
      "lon": 115.2146418,
      "tags": {
        "addr:city": "Denpasar",
        "addr:housenumber": "1",
        "addr:street": "Jalan Teuku Umar",
        "amenity": "cafe",
        "cuisine": "donut",
        "internet_access": "wlan",
        "name": "J.Co",
        "opening_hours": "Mo-Su 08:30-22:00"
      }
    },
    {
      "type": "node",
      "id": 4628958022,
      "lat": -8.7003641,
      "lon": 115.1860099,
      "tags": {
        "addr:city": "Denpasar",
        "addr:housenumber": "AA16-17",
        "addr:street": "Imam Bonjol Square",
        "amenity": "restaurant",
        "cuisine": "regional",
        "delivery": "no",
        "name": "Bakmi & Bakso Raindy",
        "opening_hours": "Mo-Su 09:00-21:00",
        "outdoor_seating": "yes",
        "smoking": "no",
        "takeaway": "yes"
      }
    },
    {
      "type": "node",
      "id": 4629419860,
      "lat": -8.7024081,
      "lon": 115.1846539,
      "tags": {
        "addr:city": "Denpasar",
        "addr:housenumber": "492",
        "addr:street": "Jalan Imam Bonjol",
        "amenity": "restaurant",
        "name": "Rawon Setan Surabaya",
        "takeaway": "yes"
      }
    },
    {
      "type": "node",
      "id": 5001273434,
      "lat": -8.6736573,
      "lon": 115.2224572,
      "tags": {
        "addr:city": "Denpasar",
        "addr:housenumber": "3",
        "addr:street": "Jalan Batusari",
        "amenity": "restaurant",
        "cuisine": "indonesian",
        "delivery": "no",
        "name": "Mak Madura Gunarso",
        "opening_hours": "Mo-Su 08:00-18:00",
        "outdoor_seating": "no",
        "smoking": "yes",
        "takeaway": "yes"
      }
    },
    {
      "type": "node",
      "id": 5001273496,
      "lat": -8.6739392,
      "lon": 115.224469,
      "tags": {
        "addr:city": "Denpasar",
        "addr:housenumber": "1A",
        "addr:street": "Jalan Tukad Yeh Ho",
        "amenity": "restaurant",
        "name": "Depot Sarmina"
      }
    },
    {
      "type": "node",
      "id": 5104495222,
      "lat": -8.6709717,
      "lon": 115.1911406,
      "tags": {
        "addr:city": "Denpasar",
        "addr:housenumber": "78",
        "addr:street": "Jalan Mahendradatta",
        "amenity": "restaurant",
        "name": "Restoran Cak Asmo",
        "wheelchair": "no"
      }
    },
    {
      "type": "node",
      "id": 5104495254,
      "lat": -8.6707258,
      "lon": 115.1915376,
      "tags": {
        "addr:city": "Denpasar",
        "addr:housenumber": "78",
        "addr:street": "Jalan Mahendradatta",
        "amenity": "restaurant",
        "cuisine": "regional",
        "name": "Mahendradatta Fried Duck Haji Slamet",
        "wheelchair": "no"
      }
    },
    {
      "type": "node",
      "id": 5275082652,
      "lat": -8.653568,
      "lon": 115.2169837,
      "tags": {
        "addr:city": "Denpasar",
        "addr:housenumber": "11",
        "addr:postcode": "80111",
        "addr:street": "Jalan Veteran",
        "addr:unit": "a",
        "amenity": "cafe",
        "cuisine": "coffee_shop",
        "internet_access": "wlan",
        "internet_access:fee": "no",
        "name": "Voltvet",
        "opening_hours": "Mo-Su 11:00-23:00",
        "outdoor_seating": "yes",
        "website": "https://voltvet.business.site/"
      }
    },
    {
      "type": "node",
      "id": 6577819846,
      "lat": -8.6541777,
      "lon": 115.2238857,
      "tags": {
        "addr:city": "Denpasar",
        "addr:housenumber": "7",
        "addr:postcode": "80236",
        "addr:street": "Menuh",
        "amenity": "restaurant",
        "cuisine": "indonesian;chinese;western",
        "diet:vegan": "only",
        "diet:vegetarian": "yes",
        "name": "Umah VG",
        "opening_hours": "Mo-Sa 09:00-19:00, Su 12:00-18:00",
        "phone": "+62 813 3788 2828",
        "website": "http://umahvegan.com/"
      }
    },
    {
      "type": "node",
      "id": 6577819947,
      "lat": -8.6614519,
      "lon": 115.2197069,
      "tags": {
        "addr:city": "Denpasar",
        "addr:housenumber": "2B",
        "addr:postcode": "80232",
        "addr:street": "Made Putra",
        "amenity": "restaurant",
        "check_date": "2023-01-18",
        "cuisine": "indonesian;asian;juice;dessert",
        "diet:gluten_free": "yes",
        "diet:macrobiotic": "yes",
        "diet:raw": "yes",
        "diet:vegan": "yes",
        "diet:vegetarian": "yes",
        "level": "0",
        "name": "Bodhi Leaf Eatery",
        "name:id": "Bodhi Leaf Eatery",
        "opening_hours": "Mo-Sa 07:00-17:00; Su 07:00-15:00",
        "phone": "+62 361 254307",
        "website": "https://bodhi-leaf-eatery.business.site/",
        "wheelchair": "limited"
      }
    },
    {
      "type": "node",
      "id": 6577839954,
      "lat": -8.6525822,
      "lon": 115.2103996,
      "tags": {
        "addr:city": "Denpasar",
        "addr:housenumber": "4",
        "addr:postcode": "80118",
        "addr:street": "Sutomo Gang XI",
        "amenity": "restaurant",
        "diet:vegan": "only",
        "diet:vegetarian": "yes",
        "name": "Merci VEGAN",
        "opening_hours": "Mo-Su 06:00-21:00",
        "phone": "+62 819 9903 3391",
        "website": "https://merci-vegan.business.site/"
      }
    },
    {
      "type": "node",
      "id": 6577871829,
      "lat": -8.6518687,
      "lon": 115.2086385,
      "tags": {
        "addr:city": "Denpasar",
        "addr:housenumber": "37",
        "addr:postcode": "80111",
        "addr:street": "Setiabudi",
        "amenity": "restaurant",
        "cuisine": "indonesian",
        "diet:vegan": "only",
        "diet:vegetarian": "yes",
        "name": "warung kasih vegan",
        "opening_hours": "Mo-Su 06:00-16:00",
        "phone": "+62 813 3801 2076",
        "website": "https://warung-kasih-vegan-vegetarian.business.site/"
      }
    },
    {
      "type": "node",
      "id": 6577871830,
      "lat": -8.6522869,
      "lon": 115.2087874,
      "tags": {
        "addr:city": "Denpasar",
        "addr:housenumber": "20",
        "addr:postcode": "80111",
        "addr:street": "Setiabudi",
        "amenity": "restaurant",
        "diet:vegan": "only",
        "diet:vegetarian": "yes",
        "name": "Ijo Daun",
        "opening_hours": "Mo-Sa 07:30-18:00",
        "phone": "+62 851 0272 5610",
        "website": "https://ijo-daun-vegetarian-vegan.business.site/"
      }
    },
    {
      "type": "node",
      "id": 6578020517,
      "lat": -8.6865672,
      "lon": 115.183306,
      "tags": {
        "addr:city": "Denpasar",
        "addr:housenumber": "88X",
        "addr:postcode": "80119",
        "addr:street": "Jalan Gunung Soputan",
        "amenity": "restaurant",
        "diet:vegan": "only",
        "diet:vegetarian": "yes",
        "name": "LN Fortunate Coffee",
        "opening_hours": "Mo-Sa 11:00-21:30, Su 10:30-21:30"
      }
    },
    {
      "type": "node",
      "id": 6707260538,
      "lat": -8.7006137,
      "lon": 115.2277742,
      "tags": {
        "addr:city": "Denpasar",
        "addr:housenumber": "95",
        "addr:place": "Indomaret",
        "addr:postcode": "80224",
        "addr:street": "Jl. Sidakarya",
        "amenity": "food_court",
        "email": "Cumi.endooss@gmail.com",
        "name": "Cumi Endooss",
        "opening_hours": "13:30-21:30"
      }
    },
    {
      "type": "node",
      "id": 6773841220,
      "lat": -8.6553875,
      "lon": 115.2134224,
      "tags": {
        "addr:city": "Denpasar",
        "addr:housenumber": "80",
        "addr:postcode": "80111",
        "addr:street": "Jalan Gajah Mada",
        "amenity": "cafe",
        "name": "Bhineka Jaya (Kopi Bali)",
        "website": "https://www.kopibali.com/"
      }
    },
    {
      "type": "node",
      "id": 8947606867,
      "lat": -8.6323977,
      "lon": 115.2330562,
      "tags": {
        "addr:city": "Denpasar",
        "addr:housenumber": "Gg. Ayung, No. 1",
        "addr:postcode": "80239",
        "addr:street": "Jalan Noja Saraswati",
        "amenity": "restaurant",
        "name": "Cendal Cendol"
      }
    },
    {
      "type": "node",
      "id": 9157288411,
      "lat": -8.6354821,
      "lon": 115.2284026,
      "tags": {
        "addr:city": "Denpasar",
        "addr:housenumber": "268",
        "addr:postcode": "80239",
        "addr:street": "Jl. Gatot Subroto Timur",
        "amenity": "restaurant",
        "cuisine": "regional;coffee_shop;japanese",
        "diet:halal": "yes",
        "email": "gatsukuliner@gmail.com",
        "name": "Gatsu Kuliner (GAKUL)",
        "opening_hours": "Mo-Su 11:00-23:00",
        "phone": "+6285738038112"
      }
    },
    {
      "type": "node",
      "id": 9802626352,
      "lat": -8.6751665,
      "lon": 115.2321437,
      "tags": {
        "addr:city": "Denpasar",
        "addr:housenumber": "10a",
        "addr:postcode": "80225",
        "addr:street": "Tukad Unda",
        "amenity": "cafe",
        "cuisine": "coffee_shop;chicken;daerahregional;fish_and_chips",
        "internet_access": "wlan",
        "internet_access:fee": "customers",
        "internet_access:ssid": "Jala Coffee",
        "name": "Jala Coffee",
        "opening_hours": "Mo-Su 12:00-22:30",
        "outdoor_seating": "yes",
        "phone": "081338023000"
      }
    },
    {
      "type": "node",
      "id": 11850255114,
      "lat": -8.6863218,
      "lon": 115.2156472,
      "tags": {
        "addr:city": "Denpasar",
        "addr:housename": "Universitas Terbuka Denpasar",
        "addr:housenumber": "121",
        "addr:neighbourhood": "Sesetan",
        "addr:postcode": "80225",
        "addr:province": "Bali",
        "addr:street": "Jalan Raya Sesetan",
        "amenity": "restaurant",
        "name": "Kantin UT Denpasar"
      }
    },
    {
      "type": "node",
      "id": 12057103862,
      "lat": -8.7065466,
      "lon": 115.2590284,
      "tags": {
        "addr:city": "Denpasar",
        "addr:housenumber": "19",
        "addr:street": "Jalan Cemara",
        "amenity": "restaurant",
        "name": "Patio restaurant",
        "opening_hours": "Mo-Su 08:00-22:00",
        "phone": "+6281390225705"
      }
    },
    {
      "type": "way",
      "id": 139854833,
      "nodes": [
        4180881001,
        1532746360,
        1532746356,
        1532746327,
        4847144775,
        4847144759,
        4180881001
      ],
      "tags": {
        "addr:city": "Denpasar",
        "addr:housenumber": "28",
        "addr:postcode": "80227",
        "addr:street": "Hang Tuah",
        "amenity": "fast_food",
        "brand": "Dunkin' Donuts",
        "brand:wikidata": "Q847743",
        "brand:wikipedia": "en:Dunkin' Donuts",
        "building": "yes",
        "cuisine": "donut;coffee",
        "internet_access": "yes",
        "internet_access:fee": "no",
        "name": "Dunkin' Donuts",
        "opening_hours": "24/7",
        "outdoor_seating": "no",
        "phone": "+62 361 750412",
        "smoking": "no",
        "takeaway": "yes"
      }
    },
    {
      "type": "way",
      "id": 311726092,
      "nodes": [
        3174428018,
        3174428019,
        3174428020,
        3229547229,
        3229547230,
        3174428021,
        3174428018
      ],
      "tags": {
        "addr:city": "Denpasar",
        "addr:housenumber": "52",
        "addr:street": "Jalan Teuku Umar",
        "amenity": "restaurant",
        "building": "yes",
        "cuisine": "japanese",
        "name": "Hoka-Hoka Bento",
        "opening_hours": "Mo-Su 10:00-22:00",
        "smoking": "no",
        "source": "Local knowledge and Hokben website for opening hours and address",
        "website": "https://www.hokben.co.id/",
        "wheelchair": "yes"
      }
    },
    {
      "type": "way",
      "id": 311852045,
      "nodes": [
        3175921569,
        3175921570,
        3175921571,
        3673374722,
        3673374719,
        3175921572,
        3175921569
      ],
      "tags": {
        "addr:city": "Denpasar",
        "addr:housenumber": "88",
        "addr:postcode": "80237",
        "addr:street": "Jalan Hayam Wuruk",
        "amenity": "restaurant",
        "building": "yes",
        "cuisine": "regional",
        "name": "Ayam Tulang Lunak Hayam Wuruk",
        "opening_hours": "Mo-Su 08:30-22:00",
        "phone": "+62-361 245230",
        "smoking": "outside",
        "source": "Survey with Ayam Tulang Lunak Hayam Wuruk website for address and phone number",
        "website": "http://www.atl-hw.com/",
        "wheelchair": "no"
      }
    },
    {
      "type": "way",
      "id": 311852046,
      "nodes": [
        3175921573,
        3175921574,
        3175921580,
        3175921577,
        3175921578,
        3175921579,
        3175921575,
        3175918957,
        3175921576,
        3175921573
      ],
      "tags": {
        "addr:city": "Denpasar",
        "addr:housenumber": "96",
        "addr:street": "Jalan Hayam Wuruk",
        "amenity": "restaurant",
        "building": "yes",
        "cuisine": "regional",
        "name": "Ayam Presto Nyonya Nita",
        "phone": "+62-361 227010, +62-361 226838",
        "smoking": "outside",
        "source": "Local knowledge, with Nyonya Nita website for address and phone number",
        "website": "https://ayampresto-nita.com/",
        "wheelchair": "no"
      }
    },
    {
      "type": "way",
      "id": 311852749,
      "nodes": [
        3175939346,
        3175939347,
        3175939348,
        3175939349,
        3175939350,
        3175939351,
        3175939352,
        3175939353,
        3175939346
      ],
      "tags": {
        "addr:city": "Denpasar",
        "addr:street": "Cok Agung Tresna",
        "amenity": "restaurant",
        "building": "yes",
        "cuisine": "regional",
        "name": "Ikan Bakar Cianjur",
        "wheelchair": "yes"
      }
    },
    {
      "type": "way",
      "id": 311862992,
      "nodes": [
        3176175093,
        3176175094,
        3176175095,
        3176175096,
        3176175097,
        3176175098,
        3176175093
      ],
      "tags": {
        "addr:city": "Denpasar",
        "addr:housenumber": "88",
        "addr:postcode": "80226",
        "addr:street": "Raya Puputan",
        "amenity": "restaurant",
        "building": "yes",
        "cuisine": "regional",
        "name": "D'Cost",
        "opening_hours": "Mo-Su 09:00-22:00",
        "phone": "+62-361 7982888",
        "smoking": "outside",
        "source": "Local knowledge, Phone and address from D'Cost website",
        "website": "https://dcostseafood.com/"
      }
    },
    {
      "type": "way",
      "id": 312030480,
      "nodes": [
        3178441833,
        3178441834,
        3178441835,
        3178441836,
        3718364801,
        3718364800,
        3718364802,
        3718364803,
        3178441833
      ],
      "tags": {
        "addr:city": "Denpasar",
        "addr:street": "Raya Puputan",
        "amenity": "restaurant",
        "building": "yes",
        "cuisine": "regional",
        "name": "Bumbu Desa",
        "smoking": "outside",
        "source": "Local knowledge"
      }
    },
    {
      "type": "way",
      "id": 312052854,
      "nodes": [
        3178649561,
        3178649562,
        3178649563,
        3178649564,
        3178649561
      ],
      "tags": {
        "addr:city": "Denpasar",
        "addr:street": "Kapten Tantular",
        "amenity": "restaurant",
        "building": "yes",
        "cuisine": "regional",
        "name": "Warung Be Sanur"
      }
    },
    {
      "type": "way",
      "id": 312388070,
      "nodes": [
        3182489068,
        3182489069,
        3182489070,
        3182489071,
        3182489068
      ],
      "tags": {
        "addr:city": "Denpasar",
        "addr:street": "Jalan Teuku Umar Barat",
        "alt_name": "Kentucky Fried Chicken",
        "amenity": "fast_food",
        "brand": "KFC",
        "brand:wikidata": "Q524757",
        "brand:wikipedia": "en:KFC",
        "building": "yes",
        "cuisine": "chicken",
        "name": "KFC",
        "opening_hours": "Mo-Su 09:00-24:00",
        "operator": "PT Fastfood Indonesia",
        "smoking": "no",
        "source": "survey",
        "takeaway": "yes",
        "wheelchair": "limited"
      }
    },
    {
      "type": "way",
      "id": 312542860,
      "nodes": [
        3184156275,
        3184156276,
        3184156277,
        3184156278,
        5093794423,
        3184156275
      ],
      "tags": {
        "addr:city": "Denpasar",
        "addr:street": "Jalan Teuku Umar",
        "amenity": "fast_food",
        "brand": "Dunkin' Donuts",
        "brand:wikidata": "Q847743",
        "brand:wikipedia": "en:Dunkin' Donuts",
        "building": "yes",
        "cuisine": "donut;coffee",
        "internet_access": "yes",
        "name": "Dunkin' Donuts",
        "source": "Local knowledge;official site",
        "takeaway": "yes",
        "website": "http://www.dunkindonuts.co.id/"
      }
    },
    {
      "type": "way",
      "id": 312887596,
      "nodes": [
        3188075760,
        5658810688,
        5658810687,
        3188080662,
        3188080663,
        3188075760
      ],
      "tags": {
        "addr:city": "Denpasar",
        "addr:housenumber": "8",
        "addr:street": "Jalan Teuku Umar",
        "amenity": "restaurant",
        "building": "yes",
        "cuisine": "regional",
        "name": "Ayam Bakar Taliwang Baru",
        "smoking": "outside",
        "source": "Survey"
      }
    },
    {
      "type": "way",
      "id": 314201173,
      "nodes": [
        3202475858,
        3202475859,
        3202475860,
        3202476061,
        3202476062,
        3202476063,
        3202476064,
        3202476065,
        3202475858
      ],
      "tags": {
        "addr:city": "Denpasar",
        "addr:street": "Cok Agung Tresna",
        "amenity": "restaurant",
        "building": "yes",
        "cuisine": "regional",
        "name": "Restoran Renon"
      }
    },
    {
      "type": "way",
      "id": 314697642,
      "nodes": [
        3207441649,
        3207441650,
        3207441654,
        3207441651,
        3207441652,
        3207441649
      ],
      "tags": {
        "addr:city": "Denpasar",
        "addr:housenumber": "141",
        "addr:street": "Jalan Teuku Umar",
        "amenity": "restaurant",
        "building": "yes",
        "cuisine": "regional",
        "name": "Warung Rani",
        "smoking": "outside",
        "source": "Survey, Bing imagery"
      }
    },
    {
      "type": "way",
      "id": 314697654,
      "nodes": [
        3188105251,
        5660623388,
        3207442018,
        3207442019,
        3207442020,
        3207442021,
        3188105251
      ],
      "tags": {
        "addr:city": "Denpasar",
        "addr:street": "Jalan Teuku Umar",
        "amenity": "restaurant",
        "building": "yes",
        "cuisine": "regional",
        "name": "MM Juice",
        "opening_hours": "Mo-Th 07:00-00:00, Su 07:00-00:00, Fr-Sa 07:00-01:00"
      }
    },
    {
      "type": "way",
      "id": 314697656,
      "nodes": [
        3207442027,
        3207442028,
        3207442029,
        3207442030,
        3207442027
      ],
      "tags": {
        "addr:city": "Denpasar",
        "addr:street": "Jalan Pulau Kawe",
        "amenity": "restaurant",
        "building": "yes",
        "cuisine": "asian",
        "name": "Chicken Bonchon",
        "opening_hours": "Mo-Su 07:00-21:30",
        "source": "Survey"
      }
    },
    {
      "type": "way",
      "id": 315784561,
      "nodes": [
        3219185283,
        3219185284,
        3219185285,
        3219185286,
        3175963471,
        3219185283
      ],
      "tags": {
        "addr:city": "Denpasar",
        "addr:street": "Jalan Waturenggong",
        "amenity": "restaurant",
        "building": "yes",
        "cuisine": "regional",
        "name": "Warung Bakso Ngetoop!",
        "opening_hours": "Mo-Su 08:30-21:00"
      }
    },
    {
      "type": "way",
      "id": 315784565,
      "nodes": [
        5581824062,
        3219185308,
        3219185309,
        5581824061,
        5581824062
      ],
      "tags": {
        "addr:city": "Denpasar",
        "addr:housenumber": "212",
        "addr:street": "Jalan Teuku Umar",
        "amenity": "restaurant",
        "building": "yes",
        "cuisine": "regional",
        "name": "Jejak Bali Kuliner",
        "opening_hours": "Mo-Su 11:00-23:00",
        "source": "Survey, official website",
        "website": "http://jejakbalikuliner.com/"
      }
    },
    {
      "type": "way",
      "id": 316161653,
      "nodes": [
        3222745157,
        3222745158,
        3222745159,
        3222745160,
        3222745157
      ],
      "tags": {
        "addr:city": "Denpasar",
        "addr:housenumber": "216",
        "addr:street": "Jalan Raya Sesetan",
        "alt_name": "Kentucky Fried Chicken",
        "amenity": "fast_food",
        "brand": "KFC",
        "brand:wikidata": "Q524757",
        "brand:wikipedia": "en:KFC",
        "building": "yes",
        "cuisine": "chicken",
        "diet:meat": "yes",
        "drive_through": "yes",
        "name": "KFC",
        "opening_hours": "24/7",
        "smoking": "no",
        "source": "Local knowledge",
        "takeaway": "yes"
      }
    },
    {
      "type": "way",
      "id": 316776952,
      "nodes": [
        3229576849,
        3229576853,
        3229576854,
        3229576855,
        3229576849
      ],
      "tags": {
        "addr:city": "Denpasar",
        "addr:street": "Jalan Komodo",
        "amenity": "restaurant",
        "building": "yes",
        "cuisine": "regional",
        "name": "Ayam Banyumasan",
        "opening_hours": "Mo-Th 10:00-22:00;Fr 13:30-22:00;Sa-Su 10:00-22:00"
      }
    },
    {
      "type": "way",
      "id": 316902539,
      "nodes": [
        3230958082,
        3230958083,
        3207441968,
        3207441973,
        3230958084,
        3230958082
      ],
      "tags": {
        "addr:city": "Denpasar",
        "addr:street": "Jalan Teuku Umar",
        "amenity": "restaurant",
        "building": "yes",
        "cuisine": "chinese",
        "name": "Depot Bali Jaya",
        "source": "Survey"
      }
    },
    {
      "type": "way",
      "id": 317137155,
      "nodes": [
        3229550161,
        3233751463,
        3233751464,
        3844443223,
        3233751465,
        3233751466,
        3229550161
      ],
      "tags": {
        "addr:city": "Denpasar",
        "addr:street": "Jalan Teuku Umar",
        "amenity": "restaurant",
        "building": "yes",
        "cuisine": "chinese",
        "name": "Istana Chinese & Seafood",
        "source": "Survey"
      }
    },
    {
      "type": "way",
      "id": 317137169,
      "nodes": [
        3233751532,
        3233751531,
        3233751527,
        3233751525,
        3233751532
      ],
      "tags": {
        "addr:city": "Denpasar",
        "addr:street": "Jalan Teuku Umar",
        "amenity": "bar",
        "building": "yes",
        "name": "Brewers Beer Gallery",
        "source": "Survey"
      }
    },
    {
      "type": "way",
      "id": 317138916,
      "nodes": [
        3233773851,
        3233773853,
        3233773858,
        3233773854,
        3233773855,
        3233773851
      ],
      "tags": {
        "addr:city": "Denpasar",
        "addr:street": "Jalan Teuku Umar",
        "amenity": "restaurant",
        "building": "yes",
        "cuisine": "regional",
        "name": "Obrigado Billiard & Restaurant",
        "smoking": "outside",
        "source": "Survey"
      }
    },
    {
      "type": "way",
      "id": 317138918,
      "nodes": [
        3233773858,
        3233773859,
        3233774864,
        3233773860,
        3233774861,
        3233773853,
        3233773858
      ],
      "tags": {
        "addr:city": "Denpasar",
        "addr:street": "Jalan Teuku Umar",
        "amenity": "restaurant",
        "building": "yes",
        "cuisine": "regional",
        "name": "Masakan Padang Sederhana",
        "phone": "+62-361 221 459",
        "source": "Survey"
      }
    },
    {
      "type": "way",
      "id": 317142082,
      "nodes": [
        3233812726,
        3233812727,
        3233812728,
        3233812729,
        3233812726
      ],
      "tags": {
        "addr:city": "Denpasar",
        "addr:street": "Jalan Teuku Umar",
        "amenity": "restaurant",
        "building": "yes",
        "cuisine": "chinese",
        "name": "Restoran Pak Cho Cho",
        "source": "Survey"
      }
    },
    {
      "type": "way",
      "id": 318650172,
      "nodes": [
        3250239481,
        3250239482,
        3250239494,
        3250239495,
        3250239486,
        3250239487,
        3250239488,
        3250239489,
        3250239490,
        3250239485,
        3250239484,
        3250239483,
        3780733280,
        3780733279,
        3250239481
      ],
      "tags": {
        "addr:city": "Denpasar",
        "addr:street": "Jalan Merdeka",
        "amenity": "restaurant",
        "building": "yes",
        "cuisine": "regional",
        "name": "Ayam Bakar Wong Solo",
        "opening_hours": "Mo-Su 09:30-22:00"
      }
    },
    {
      "type": "way",
      "id": 318650175,
      "nodes": [
        5577521914,
        3250239491,
        3250239492,
        5577521912,
        5577521913,
        5577521914
      ],
      "tags": {
        "addr:city": "Denpasar",
        "addr:street": "Jalan Merdeka",
        "amenity": "restaurant",
        "building": "yes",
        "cuisine": "regional",
        "name": "Mie Kocok Bandung",
        "opening_hours": "Mo-Su 09:30-22:00"
      }
    },
    {
      "type": "way",
      "id": 318776269,
      "nodes": [
        3251510994,
        3251510995,
        3251510996,
        3251510997,
        3251510998,
        3251510999,
        3251511000,
        3251511001,
        3251511002,
        3251511021,
        3251511003,
        3251511004,
        3251511005,
        3251511006,
        3251511007,
        3251511008,
        3251511009,
        3251510994
      ],
      "tags": {
        "addr:city": "Denpasar",
        "addr:street": "Raya Puputan",
        "amenity": "restaurant",
        "building": "yes",
        "cuisine": "indonesian",
        "name": "Pondok Kuring",
        "source": "Survey;Bing"
      }
    },
    {
      "type": "way",
      "id": 318780680,
      "nodes": [
        3251579440,
        3251579441,
        3251579442,
        3251579443,
        3251579444,
        3251579445,
        3285647876,
        4524227597,
        4524227598,
        3251579446,
        3251579447,
        3285646711,
        3251579440
      ],
      "tags": {
        "addr:city": "Denpasar",
        "addr:street": "Raya Puputan",
        "amenity": "restaurant",
        "building": "yes",
        "cuisine": "regional",
        "name": "Pujasera",
        "smoking": "yes",
        "source": "Survey"
      }
    },
    {
      "type": "node",
      "id": 4629419804,
      "lat": -8.7055096,
      "lon": 115.1835639
    },
    {
      "type": "node",
      "id": 4629419805,
      "lat": -8.70561,
      "lon": 115.183495
    },
    {
      "type": "node",
      "id": 4629419806,
      "lat": -8.705649,
      "lon": 115.1835533
    },
    {
      "type": "node",
      "id": 4629419807,
      "lat": -8.7056063,
      "lon": 115.1835826
    },
    {
      "type": "node",
      "id": 4629419808,
      "lat": -8.7056176,
      "lon": 115.1835993
    },
    {
      "type": "node",
      "id": 4629419809,
      "lat": -8.7055599,
      "lon": 115.1836389
    },
    {
      "type": "node",
      "id": 4629420328,
      "lat": -8.7023184,
      "lon": 115.1850332
    },
    {
      "type": "node",
      "id": 4629420329,
      "lat": -8.7023832,
      "lon": 115.1850207
    },
    {
      "type": "node",
      "id": 4629420330,
      "lat": -8.702393,
      "lon": 115.1850722
    },
    {
      "type": "node",
      "id": 4629420331,
      "lat": -8.7023281,
      "lon": 115.1850847
    },
    {
      "type": "node",
      "id": 4169264662,
      "lat": -8.7225668,
      "lon": 115.1915921
    },
    {
      "type": "node",
      "id": 4169264665,
      "lat": -8.7222209,
      "lon": 115.1913384
    },
    {
      "type": "node",
      "id": 4169264666,
      "lat": -8.7222021,
      "lon": 115.1915611
    },
    {
      "type": "node",
      "id": 4169264667,
      "lat": -8.7225735,
      "lon": 115.1914966
    },
    {
      "type": "node",
      "id": 4169264668,
      "lat": -8.7224277,
      "lon": 115.1914832
    },
    {
      "type": "node",
      "id": 4169264669,
      "lat": -8.7224356,
      "lon": 115.1913545
    },
    {
      "type": "node",
      "id": 4169264580,
      "lat": -8.7212113,
      "lon": 115.1944318
    },
    {
      "type": "node",
      "id": 4169264581,
      "lat": -8.7212072,
      "lon": 115.1945964
    },
    {
      "type": "node",
      "id": 4169264582,
      "lat": -8.7214584,
      "lon": 115.1946045
    },
    {
      "type": "node",
      "id": 4169264583,
      "lat": -8.7214564,
      "lon": 115.1946574
    },
    {
      "type": "node",
      "id": 4169264584,
      "lat": -8.7217738,
      "lon": 115.1946635
    },
    {
      "type": "node",
      "id": 4169264585,
      "lat": -8.721796,
      "lon": 115.1944866
    },
    {
      "type": "node",
      "id": 4169264586,
      "lat": -8.7216523,
      "lon": 115.1944328
    },
    {
      "type": "node",
      "id": 4169264587,
      "lat": -8.7216538,
      "lon": 115.19448
    },
    {
      "type": "node",
      "id": 4077654705,
      "lat": -8.718327,
      "lon": 115.1999368
    },
    {
      "type": "node",
      "id": 4077654706,
      "lat": -8.7185316,
      "lon": 115.1999226
    },
    {
      "type": "node",
      "id": 4077654707,
      "lat": -8.7185519,
      "lon": 115.2002216
    },
    {
      "type": "node",
      "id": 4077654708,
      "lat": -8.7183472,
      "lon": 115.2002357
    },
    {
      "type": "node",
      "id": 4077608538,
      "lat": -8.7172663,
      "lon": 115.2146382
    },
    {
      "type": "node",
      "id": 4077608539,
      "lat": -8.7172765,
      "lon": 115.2148351
    },
    {
      "type": "node",
      "id": 4077608540,
      "lat": -8.7173865,
      "lon": 115.2148292
    },
    {
      "type": "node",
      "id": 4077608541,
      "lat": -8.7173763,
      "lon": 115.2146323
    },
    {
      "type": "node",
      "id": 5438804107,
      "lat": -8.7147542,
      "lon": 115.2151825
    },
    {
      "type": "node",
      "id": 5438804108,
      "lat": -8.7147794,
      "lon": 115.2153253
    },
    {
      "type": "node",
      "id": 5438804109,
      "lat": -8.7146849,
      "lon": 115.2153423
    },
    {
      "type": "node",
      "id": 5438804110,
      "lat": -8.7146597,
      "lon": 115.2151995
    },
    {
      "type": "node",
      "id": 4624904802,
      "lat": -8.6908156,
      "lon": 115.1902904
    },
    {
      "type": "node",
      "id": 4624904803,
      "lat": -8.6909301,
      "lon": 115.1901766
    },
    {
      "type": "node",
      "id": 4624904804,
      "lat": -8.690912,
      "lon": 115.1901542
    },
    {
      "type": "node",
      "id": 4624904805,
      "lat": -8.6909502,
      "lon": 115.1901095
    },
    {
      "type": "node",
      "id": 4624904806,
      "lat": -8.6910064,
      "lon": 115.1901705
    },
    {
      "type": "node",
      "id": 4624904807,
      "lat": -8.6910337,
      "lon": 115.1902413
    },
    {
      "type": "node",
      "id": 4624904808,
      "lat": -8.6910265,
      "lon": 115.1902599
    },
    {
      "type": "node",
      "id": 4624904809,
      "lat": -8.6909703,
      "lon": 115.1902172
    },
    {
      "type": "node",
      "id": 4624904810,
      "lat": -8.6908919,
      "lon": 115.1903047
    },
    {
      "type": "node",
      "id": 4624904811,
      "lat": -8.6909769,
      "lon": 115.1904801
    },
    {
      "type": "node",
      "id": 4624904812,
      "lat": -8.6909305,
      "lon": 115.1905064
    },
    {
      "type": "node",
      "id": 4624904817,
      "lat": -8.6909931,
      "lon": 115.190156
    },
    {
      "type": "node",
      "id": 4624904846,
      "lat": -8.6914819,
      "lon": 115.1890566
    },
    {
      "type": "node",
      "id": 4624904847,
      "lat": -8.6913717,
      "lon": 115.1891152
    },
    {
      "type": "node",
      "id": 4624904848,
      "lat": -8.6914223,
      "lon": 115.1892125
    },
    {
      "type": "node",
      "id": 4624904849,
      "lat": -8.6915325,
      "lon": 115.189154
    },
    {
      "type": "node",
      "id": 3780438901,
      "lat": -8.7065299,
      "lon": 115.2199884
    },
    {
      "type": "node",
      "id": 3780438902,
      "lat": -8.7065143,
      "lon": 115.2200957
    },
    {
      "type": "node",
      "id": 3780438903,
      "lat": -8.7066879,
      "lon": 115.2201215
    },
    {
      "type": "node",
      "id": 3780438904,
      "lat": -8.7067035,
      "lon": 115.2200142
    },
    {
      "type": "node",
      "id": 3960837424,
      "lat": -8.7064972,
      "lon": 115.2204684
    },
    {
      "type": "node",
      "id": 3960837425,
      "lat": -8.7064972,
      "lon": 115.2203206
    },
    {
      "type": "node",
      "id": 3222745157,
      "lat": -8.7040832,
      "lon": 115.2200228
    },
    {
      "type": "node",
      "id": 3222745158,
      "lat": -8.704082,
      "lon": 115.2201689
    },
    {
      "type": "node",
      "id": 3222745159,
      "lat": -8.7042663,
      "lon": 115.2201704
    },
    {
      "type": "node",
      "id": 3222745160,
      "lat": -8.7042674,
      "lon": 115.2200243
    },
    {
      "type": "node",
      "id": 3960837422,
      "lat": -8.7063723,
      "lon": 115.2203206
    },
    {
      "type": "node",
      "id": 3960837423,
      "lat": -8.7063723,
      "lon": 115.2204684
    },
    {
      "type": "node",
      "id": 3960837462,
      "lat": -8.7053215,
      "lon": 115.2201216
    },
    {
      "type": "node",
      "id": 3960837463,
      "lat": -8.7054115,
      "lon": 115.2203235
    },
    {
      "type": "node",
      "id": 3960837464,
      "lat": -8.7054342,
      "lon": 115.2201356
    },
    {
      "type": "node",
      "id": 3960837465,
      "lat": -8.7052988,
      "lon": 115.2203096
    },
    {
      "type": "node",
      "id": 9916675240,
      "lat": -8.6971426,
      "lon": 115.2191465
    },
    {
      "type": "node",
      "id": 9916675241,
      "lat": -8.6971412,
      "lon": 115.2192289
    },
    {
      "type": "node",
      "id": 9916675242,
      "lat": -8.6970165,
      "lon": 115.2192267
    },
    {
      "type": "node",
      "id": 9916675243,
      "lat": -8.6970179,
      "lon": 115.2191444
    },
    {
      "type": "node",
      "id": 3771892479,
      "lat": -8.6969204,
      "lon": 115.2269377
    },
    {
      "type": "node",
      "id": 3771892480,
      "lat": -8.6969379,
      "lon": 115.2266176
    },
    {
      "type": "node",
      "id": 3771892481,
      "lat": -8.6970159,
      "lon": 115.226622
    },
    {
      "type": "node",
      "id": 3771892482,
      "lat": -8.6969984,
      "lon": 115.2269421
    },
    {
      "type": "node",
      "id": 4219293538,
      "lat": -8.6977913,
      "lon": 115.2267418
    },
    {
      "type": "node",
      "id": 4219293539,
      "lat": -8.6979096,
      "lon": 115.226752
    },
    {
      "type": "node",
      "id": 4219293579,
      "lat": -8.6977718,
      "lon": 115.2269867
    },
    {
      "type": "node",
      "id": 4219293580,
      "lat": -8.6978858,
      "lon": 115.2269969
    },
    {
      "type": "node",
      "id": 4236826597,
      "lat": -8.6755154,
      "lon": 115.1846483
    },
    {
      "type": "node",
      "id": 4236826598,
      "lat": -8.6754372,
      "lon": 115.1847838
    },
    {
      "type": "node",
      "id": 4236826599,
      "lat": -8.6755874,
      "lon": 115.1848725
    },
    {
      "type": "node",
      "id": 4236826600,
      "lat": -8.6756656,
      "lon": 115.184737
    },
    {
      "type": "node",
      "id": 4249837880,
      "lat": -8.6369741,
      "lon": 115.1849316
    },
    {
      "type": "node",
      "id": 4249837881,
      "lat": -8.6369506,
      "lon": 115.1851468
    },
    {
      "type": "node",
      "id": 4249837882,
      "lat": -8.6372412,
      "lon": 115.1849614
    },
    {
      "type": "node",
      "id": 4249837883,
      "lat": -8.6371441,
      "lon": 115.1857205
    },
    {
      "type": "node",
      "id": 4249837892,
      "lat": -8.6368906,
      "lon": 115.1856872
    },
    {
      "type": "node",
      "id": 4249837893,
      "lat": -8.6369758,
      "lon": 115.1856984
    },
    {
      "type": "node",
      "id": 4249837894,
      "lat": -8.6369147,
      "lon": 115.1854996
    },
    {
      "type": "node",
      "id": 4249837895,
      "lat": -8.6371681,
      "lon": 115.1855329
    },
    {
      "type": "node",
      "id": 4249837917,
      "lat": -8.6372307,
      "lon": 115.1850582
    },
    {
      "type": "node",
      "id": 4249837918,
      "lat": -8.6372177,
      "lon": 115.1851767
    },
    {
      "type": "node",
      "id": 4593932707,
      "lat": -8.636888,
      "lon": 115.1847397
    },
    {
      "type": "node",
      "id": 5096598794,
      "lat": -8.6370558,
      "lon": 115.1847512
    },
    {
      "type": "node",
      "id": 5096598795,
      "lat": -8.6370498,
      "lon": 115.1848416
    },
    {
      "type": "node",
      "id": 5096598796,
      "lat": -8.6368819,
      "lon": 115.1848301
    },
    {
      "type": "node",
      "id": 5096598821,
      "lat": -8.6368809,
      "lon": 115.1844451
    },
    {
      "type": "node",
      "id": 5096598832,
      "lat": -8.6370249,
      "lon": 115.1844614
    },
    {
      "type": "node",
      "id": 5096598833,
      "lat": -8.6370367,
      "lon": 115.1843552
    },
    {
      "type": "node",
      "id": 5096598836,
      "lat": -8.6370041,
      "lon": 115.1843515
    },
    {
      "type": "node",
      "id": 5103307799,
      "lat": -8.6368926,
      "lon": 115.1843389
    },
    {
      "type": "node",
      "id": 3182489068,
      "lat": -8.6817884,
      "lon": 115.1910707
    },
    {
      "type": "node",
      "id": 3182489069,
      "lat": -8.6819593,
      "lon": 115.1910554
    },
    {
      "type": "node",
      "id": 3182489070,
      "lat": -8.6819732,
      "lon": 115.19116
    },
    {
      "type": "node",
      "id": 3182489071,
      "lat": -8.681797,
      "lon": 115.1911726
    },
    {
      "type": "node",
      "id": 3758652743,
      "lat": -8.6819794,
      "lon": 115.1915448
    },
    {
      "type": "node",
      "id": 3758652744,
      "lat": -8.6822004,
      "lon": 115.1915128
    },
    {
      "type": "node",
      "id": 3758652745,
      "lat": -8.6822282,
      "lon": 115.1917181
    },
    {
      "type": "node",
      "id": 3758652746,
      "lat": -8.6820125,
      "lon": 115.1917474
    },
    {
      "type": "node",
      "id": 4236778412,
      "lat": -8.6808969,
      "lon": 115.1904979
    },
    {
      "type": "node",
      "id": 4236778413,
      "lat": -8.6812163,
      "lon": 115.1904281
    },
    {
      "type": "node",
      "id": 4236778414,
      "lat": -8.6812291,
      "lon": 115.1904881
    },
    {
      "type": "node",
      "id": 4236778415,
      "lat": -8.6809257,
      "lon": 115.1906326
    },
    {
      "type": "node",
      "id": 4236778416,
      "lat": -8.6810167,
      "lon": 115.1905345
    },
    {
      "type": "node",
      "id": 4236778417,
      "lat": -8.6810326,
      "lon": 115.1906092
    },
    {
      "type": "node",
      "id": 4236778432,
      "lat": -8.681616,
      "lon": 115.1904286
    },
    {
      "type": "node",
      "id": 4236778435,
      "lat": -8.6818192,
      "lon": 115.1903827
    },
    {
      "type": "node",
      "id": 4236778436,
      "lat": -8.6818331,
      "lon": 115.1904457
    },
    {
      "type": "node",
      "id": 4236778437,
      "lat": -8.6816298,
      "lon": 115.1904915
    },
    {
      "type": "node",
      "id": 6739132277,
      "lat": -8.6809094,
      "lon": 115.1890877
    },
    {
      "type": "node",
      "id": 6739132278,
      "lat": -8.680951,
      "lon": 115.1892141
    },
    {
      "type": "node",
      "id": 6739132279,
      "lat": -8.6806933,
      "lon": 115.1893008
    },
    {
      "type": "node",
      "id": 7579485363,
      "lat": -8.6806517,
      "lon": 115.1891745
    },
    {
      "type": "node",
      "id": 4080923388,
      "lat": -8.6813842,
      "lon": 115.1941625
    },
    {
      "type": "node",
      "id": 4080923389,
      "lat": -8.6814498,
      "lon": 115.1941625
    },
    {
      "type": "node",
      "id": 4080923390,
      "lat": -8.6814498,
      "lon": 115.1942115
    },
    {
      "type": "node",
      "id": 4080923391,
      "lat": -8.6813842,
      "lon": 115.1942115
    },
    {
      "type": "node",
      "id": 4236778052,
      "lat": -8.6811852,
      "lon": 115.1931912
    },
    {
      "type": "node",
      "id": 4236778053,
      "lat": -8.6814948,
      "lon": 115.1931489
    },
    {
      "type": "node",
      "id": 4236778054,
      "lat": -8.6815178,
      "lon": 115.1933212
    },
    {
      "type": "node",
      "id": 4236778055,
      "lat": -8.6812083,
      "lon": 115.1933635
    },
    {
      "type": "node",
      "id": 4236778056,
      "lat": -8.6813726,
      "lon": 115.193166
    },
    {
      "type": "node",
      "id": 4236826543,
      "lat": -8.677189,
      "lon": 115.1864033
    },
    {
      "type": "node",
      "id": 4236826544,
      "lat": -8.6769902,
      "lon": 115.1867023
    },
    {
      "type": "node",
      "id": 4236826545,
      "lat": -8.6770445,
      "lon": 115.1867392
    },
    {
      "type": "node",
      "id": 4236826546,
      "lat": -8.6771276,
      "lon": 115.1866144
    },
    {
      "type": "node",
      "id": 4236826547,
      "lat": -8.6771482,
      "lon": 115.1866284
    },
    {
      "type": "node",
      "id": 4236826548,
      "lat": -8.677264,
      "lon": 115.1864543
    },
    {
      "type": "node",
      "id": 4236861277,
      "lat": -8.6786636,
      "lon": 115.1899461
    },
    {
      "type": "node",
      "id": 4236861278,
      "lat": -8.6787066,
      "lon": 115.1900589
    },
    {
      "type": "node",
      "id": 4236861279,
      "lat": -8.6788237,
      "lon": 115.1900132
    },
    {
      "type": "node",
      "id": 4236861280,
      "lat": -8.6787807,
      "lon": 115.1899004
    },
    {
      "type": "node",
      "id": 4236861290,
      "lat": -8.6785709,
      "lon": 115.1900671
    },
    {
      "type": "node",
      "id": 4236861291,
      "lat": -8.6786493,
      "lon": 115.1900399
    },
    {
      "type": "node",
      "id": 4236861292,
      "lat": -8.678679,
      "lon": 115.1901276
    },
    {
      "type": "node",
      "id": 4236861293,
      "lat": -8.6786006,
      "lon": 115.1901547
    },
    {
      "type": "node",
      "id": 3219185308,
      "lat": -8.6805633,
      "lon": 115.2013234
    },
    {
      "type": "node",
      "id": 3219185309,
      "lat": -8.6807733,
      "lon": 115.2018897
    },
    {
      "type": "node",
      "id": 5581824061,
      "lat": -8.680679,
      "lon": 115.2019241
    },
    {
      "type": "node",
      "id": 5581824062,
      "lat": -8.680468,
      "lon": 115.201361
    },
    {
      "type": "node",
      "id": 3184156275,
      "lat": -8.6755917,
      "lon": 115.2070246
    },
    {
      "type": "node",
      "id": 3184156276,
      "lat": -8.6757141,
      "lon": 115.206998
    },
    {
      "type": "node",
      "id": 3184156277,
      "lat": -8.6756599,
      "lon": 115.206706
    },
    {
      "type": "node",
      "id": 3184156278,
      "lat": -8.675534,
      "lon": 115.2067308
    },
    {
      "type": "node",
      "id": 3207441649,
      "lat": -8.6756942,
      "lon": 115.2073542
    },
    {
      "type": "node",
      "id": 3207441650,
      "lat": -8.6757612,
      "lon": 115.2073388
    },
    {
      "type": "node",
      "id": 3207441651,
      "lat": -8.6757947,
      "lon": 115.2074959
    },
    {
      "type": "node",
      "id": 3207441652,
      "lat": -8.6757247,
      "lon": 115.2075082
    },
    {
      "type": "node",
      "id": 3207441654,
      "lat": -8.6757717,
      "lon": 115.2073976
    },
    {
      "type": "node",
      "id": 3207441968,
      "lat": -8.6751277,
      "lon": 115.2071509
    },
    {
      "type": "node",
      "id": 3207441973,
      "lat": -8.6751537,
      "lon": 115.2072739
    },
    {
      "type": "node",
      "id": 3207442027,
      "lat": -8.6765257,
      "lon": 115.2068304
    },
    {
      "type": "node",
      "id": 3207442028,
      "lat": -8.6765592,
      "lon": 115.2070707
    },
    {
      "type": "node",
      "id": 3207442029,
      "lat": -8.6766475,
      "lon": 115.2070615
    },
    {
      "type": "node",
      "id": 3207442030,
      "lat": -8.676614,
      "lon": 115.206815
    },
    {
      "type": "node",
      "id": 3229576849,
      "lat": -8.6772482,
      "lon": 115.2113027
    },
    {
      "type": "node",
      "id": 3229576853,
      "lat": -8.6772453,
      "lon": 115.2112445
    },
    {
      "type": "node",
      "id": 3229576854,
      "lat": -8.6774193,
      "lon": 115.2112356
    },
    {
      "type": "node",
      "id": 3229576855,
      "lat": -8.6774222,
      "lon": 115.2112939
    },
    {
      "type": "node",
      "id": 3230958082,
      "lat": -8.6750195,
      "lon": 115.2071001
    },
    {
      "type": "node",
      "id": 3230958083,
      "lat": -8.6751125,
      "lon": 115.2070791
    },
    {
      "type": "node",
      "id": 3230958084,
      "lat": -8.6750637,
      "lon": 115.2072972
    },
    {
      "type": "node",
      "id": 4249817966,
      "lat": -8.6772974,
      "lon": 115.2068041
    },
    {
      "type": "node",
      "id": 4249817967,
      "lat": -8.6773098,
      "lon": 115.2069374
    },
    {
      "type": "node",
      "id": 4249817968,
      "lat": -8.6774368,
      "lon": 115.2069253
    },
    {
      "type": "node",
      "id": 4249817969,
      "lat": -8.6774244,
      "lon": 115.206792
    },
    {
      "type": "node",
      "id": 4249817973,
      "lat": -8.6774347,
      "lon": 115.206903
    },
    {
      "type": "node",
      "id": 4249818153,
      "lat": -8.6781895,
      "lon": 115.2069872
    },
    {
      "type": "node",
      "id": 4249818157,
      "lat": -8.6781858,
      "lon": 115.2068816
    },
    {
      "type": "node",
      "id": 4249818158,
      "lat": -8.6782839,
      "lon": 115.2068791
    },
    {
      "type": "node",
      "id": 4249818159,
      "lat": -8.6782885,
      "lon": 115.2069853
    },
    {
      "type": "node",
      "id": 4249818167,
      "lat": -8.6782515,
      "lon": 115.206986
    },
    {
      "type": "node",
      "id": 4249818168,
      "lat": -8.678203,
      "lon": 115.206987
    },
    {
      "type": "node",
      "id": 5093794423,
      "lat": -8.675566,
      "lon": 115.2068938
    },
    {
      "type": "node",
      "id": 4278133803,
      "lat": -8.6653295,
      "lon": 115.198557
    },
    {
      "type": "node",
      "id": 4278133806,
      "lat": -8.6653355,
      "lon": 115.1986994
    },
    {
      "type": "node",
      "id": 4278133887,
      "lat": -8.6652464,
      "lon": 115.1985596
    },
    {
      "type": "node",
      "id": 4278133888,
      "lat": -8.6652525,
      "lon": 115.1987044
    },
    {
      "type": "node",
      "id": 3174428018,
      "lat": -8.6694908,
      "lon": 115.2098544
    },
    {
      "type": "node",
      "id": 3174428019,
      "lat": -8.6696463,
      "lon": 115.2098125
    },
    {
      "type": "node",
      "id": 3174428020,
      "lat": -8.6696949,
      "lon": 115.2099972
    },
    {
      "type": "node",
      "id": 3174428021,
      "lat": -8.6695394,
      "lon": 115.2100391
    },
    {
      "type": "node",
      "id": 3188105251,
      "lat": -8.6699204,
      "lon": 115.2106335
    },
    {
      "type": "node",
      "id": 3207442018,
      "lat": -8.6698972,
      "lon": 115.2105603
    },
    {
      "type": "node",
      "id": 3207442019,
      "lat": -8.6700417,
      "lon": 115.2105135
    },
    {
      "type": "node",
      "id": 3207442020,
      "lat": -8.6700909,
      "lon": 115.2106686
    },
    {
      "type": "node",
      "id": 3207442021,
      "lat": -8.6699464,
      "lon": 115.2107155
    },
    {
      "type": "node",
      "id": 3229547229,
      "lat": -8.6696431,
      "lon": 115.2100112
    },
    {
      "type": "node",
      "id": 3229547230,
      "lat": -8.6696021,
      "lon": 115.2100222
    },
    {
      "type": "node",
      "id": 3229550161,
      "lat": -8.6733004,
      "lon": 115.2082993
    },
    {
      "type": "node",
      "id": 3233751463,
      "lat": -8.6732919,
      "lon": 115.2082511
    },
    {
      "type": "node",
      "id": 3233751464,
      "lat": -8.6733802,
      "lon": 115.208231
    },
    {
      "type": "node",
      "id": 3233751465,
      "lat": -8.6734153,
      "lon": 115.2083912
    },
    {
      "type": "node",
      "id": 3233751466,
      "lat": -8.6733258,
      "lon": 115.2084112
    },
    {
      "type": "node",
      "id": 3233751525,
      "lat": -8.6707646,
      "lon": 115.2094553
    },
    {
      "type": "node",
      "id": 3233751527,
      "lat": -8.6707807,
      "lon": 115.2095206
    },
    {
      "type": "node",
      "id": 3233751531,
      "lat": -8.6707022,
      "lon": 115.2095487
    },
    {
      "type": "node",
      "id": 3233751532,
      "lat": -8.6706838,
      "lon": 115.2094803
    },
    {
      "type": "node",
      "id": 3233773851,
      "lat": -8.6722869,
      "lon": 115.2089092
    },
    {
      "type": "node",
      "id": 3233773853,
      "lat": -8.6723872,
      "lon": 115.2088828
    },
    {
      "type": "node",
      "id": 3233773854,
      "lat": -8.6724434,
      "lon": 115.2090996
    },
    {
      "type": "node",
      "id": 3233773855,
      "lat": -8.6723469,
      "lon": 115.2091263
    },
    {
      "type": "node",
      "id": 3233773858,
      "lat": -8.6724354,
      "lon": 115.2090674
    },
    {
      "type": "node",
      "id": 3233773859,
      "lat": -8.6725365,
      "lon": 115.2090415
    },
    {
      "type": "node",
      "id": 3233773860,
      "lat": -8.6724862,
      "lon": 115.2088274
    },
    {
      "type": "node",
      "id": 3233774861,
      "lat": -8.6723824,
      "lon": 115.2088587
    },
    {
      "type": "node",
      "id": 3233774864,
      "lat": -8.6725197,
      "lon": 115.2089722
    },
    {
      "type": "node",
      "id": 3233812726,
      "lat": -8.6714903,
      "lon": 115.2092818
    },
    {
      "type": "node",
      "id": 3233812727,
      "lat": -8.6715095,
      "lon": 115.2093544
    },
    {
      "type": "node",
      "id": 3233812728,
      "lat": -8.6716267,
      "lon": 115.2093207
    },
    {
      "type": "node",
      "id": 3233812729,
      "lat": -8.6715952,
      "lon": 115.2092057
    },
    {
      "type": "node",
      "id": 3844443223,
      "lat": -8.673411,
      "lon": 115.2083717
    },
    {
      "type": "node",
      "id": 4278134162,
      "lat": -8.6678177,
      "lon": 115.2098552
    },
    {
      "type": "node",
      "id": 4278134163,
      "lat": -8.6678626,
      "lon": 115.2100341
    },
    {
      "type": "node",
      "id": 4278134164,
      "lat": -8.6679132,
      "lon": 115.2100211
    },
    {
      "type": "node",
      "id": 4278134165,
      "lat": -8.6678683,
      "lon": 115.2098422
    },
    {
      "type": "node",
      "id": 5660623049,
      "lat": -8.6697066,
      "lon": 115.2114472
    },
    {
      "type": "node",
      "id": 5660623050,
      "lat": -8.6695795,
      "lon": 115.2114706
    },
    {
      "type": "node",
      "id": 5660623051,
      "lat": -8.6695545,
      "lon": 115.2113318
    },
    {
      "type": "node",
      "id": 5660623052,
      "lat": -8.6696083,
      "lon": 115.2113219
    },
    {
      "type": "node",
      "id": 5660623053,
      "lat": -8.6696065,
      "lon": 115.2113119
    },
    {
      "type": "node",
      "id": 5660623054,
      "lat": -8.6696798,
      "lon": 115.2112984
    },
    {
      "type": "node",
      "id": 5660623388,
      "lat": -8.6699081,
      "lon": 115.2105945
    },
    {
      "type": "node",
      "id": 4080927336,
      "lat": -8.6658526,
      "lon": 115.2065799
    },
    {
      "type": "node",
      "id": 4080927337,
      "lat": -8.6659294,
      "lon": 115.2067541
    },
    {
      "type": "node",
      "id": 4080927338,
      "lat": -8.6660382,
      "lon": 115.206705
    },
    {
      "type": "node",
      "id": 4080927339,
      "lat": -8.6659811,
      "lon": 115.2065755
    },
    {
      "type": "node",
      "id": 4080927340,
      "lat": -8.6659214,
      "lon": 115.2066024
    },
    {
      "type": "node",
      "id": 4080927341,
      "lat": -8.6659017,
      "lon": 115.2065577
    },
    {
      "type": "node",
      "id": 5099110736,
      "lat": -8.6830817,
      "lon": 115.2136086
    },
    {
      "type": "node",
      "id": 5671839641,
      "lat": -8.6831387,
      "lon": 115.2136148
    },
    {
      "type": "node",
      "id": 5671839642,
      "lat": -8.6831357,
      "lon": 115.2136769
    },
    {
      "type": "node",
      "id": 5671839643,
      "lat": -8.6830792,
      "lon": 115.2136727
    },
    {
      "type": "node",
      "id": 3712022532,
      "lat": -8.6745657,
      "lon": 115.215506
    },
    {
      "type": "node",
      "id": 4171856853,
      "lat": -8.67851,
      "lon": 115.2149936
    },
    {
      "type": "node",
      "id": 4171856854,
      "lat": -8.6785399,
      "lon": 115.2149946
    },
    {
      "type": "node",
      "id": 4171856855,
      "lat": -8.6785422,
      "lon": 115.2149276
    },
    {
      "type": "node",
      "id": 4171856856,
      "lat": -8.6785995,
      "lon": 115.2149296
    },
    {
      "type": "node",
      "id": 4171856857,
      "lat": -8.6785935,
      "lon": 115.2151105
    },
    {
      "type": "node",
      "id": 4171856858,
      "lat": -8.6785062,
      "lon": 115.2151075
    },
    {
      "type": "node",
      "id": 4219293843,
      "lat": -8.674567,
      "lon": 115.2156407
    },
    {
      "type": "node",
      "id": 4219336644,
      "lat": -8.674403,
      "lon": 115.2156448
    },
    {
      "type": "node",
      "id": 4219336646,
      "lat": -8.6744003,
      "lon": 115.2155119
    },
    {
      "type": "node",
      "id": 3175963471,
      "lat": -8.6785808,
      "lon": 115.2251674
    },
    {
      "type": "node",
      "id": 3219185283,
      "lat": -8.6784819,
      "lon": 115.2251751
    },
    {
      "type": "node",
      "id": 3219185284,
      "lat": -8.6784862,
      "lon": 115.2252725
    },
    {
      "type": "node",
      "id": 3219185285,
      "lat": -8.6786385,
      "lon": 115.2252585
    },
    {
      "type": "node",
      "id": 3219185286,
      "lat": -8.6786316,
      "lon": 115.2251604
    },
    {
      "type": "node",
      "id": 4575542811,
      "lat": -8.6737059,
      "lon": 115.2249627
    },
    {
      "type": "node",
      "id": 4575542812,
      "lat": -8.6738501,
      "lon": 115.2249627
    },
    {
      "type": "node",
      "id": 4575542813,
      "lat": -8.67385,
      "lon": 115.2248046
    },
    {
      "type": "node",
      "id": 4575542814,
      "lat": -8.6737518,
      "lon": 115.2248046
    },
    {
      "type": "node",
      "id": 4575542815,
      "lat": -8.6737519,
      "lon": 115.2248969
    },
    {
      "type": "node",
      "id": 4575542816,
      "lat": -8.6737059,
      "lon": 115.2248969
    },
    {
      "type": "node",
      "id": 3671677671,
      "lat": -8.6778164,
      "lon": 115.2277126
    },
    {
      "type": "node",
      "id": 3671677672,
      "lat": -8.677816,
      "lon": 115.2278366
    },
    {
      "type": "node",
      "id": 3671677673,
      "lat": -8.6780461,
      "lon": 115.2278372
    },
    {
      "type": "node",
      "id": 3671677674,
      "lat": -8.6780465,
      "lon": 115.2277133
    },
    {
      "type": "node",
      "id": 3713738854,
      "lat": -8.676915,
      "lon": 115.230958
    },
    {
      "type": "node",
      "id": 3713738855,
      "lat": -8.6768998,
      "lon": 115.2312042
    },
    {
      "type": "node",
      "id": 3713738856,
      "lat": -8.6773749,
      "lon": 115.2312293
    },
    {
      "type": "node",
      "id": 3713738858,
      "lat": -8.6769402,
      "lon": 115.2310326
    },
    {
      "type": "node",
      "id": 3713738859,
      "lat": -8.6769351,
      "lon": 115.2311503
    },
    {
      "type": "node",
      "id": 3713738860,
      "lat": -8.6773149,
      "lon": 115.2311687
    },
    {
      "type": "node",
      "id": 3713738861,
      "lat": -8.67732,
      "lon": 115.2310509
    },
    {
      "type": "node",
      "id": 3779293124,
      "lat": -8.6755436,
      "lon": 115.2280044
    },
    {
      "type": "node",
      "id": 3779293125,
      "lat": -8.6755485,
      "lon": 115.2277743
    },
    {
      "type": "node",
      "id": 3779293126,
      "lat": -8.6756054,
      "lon": 115.2277756
    },
    {
      "type": "node",
      "id": 3779293127,
      "lat": -8.6756005,
      "lon": 115.2280056
    },
    {
      "type": "node",
      "id": 3779293138,
      "lat": -8.6764073,
      "lon": 115.2280845
    },
    {
      "type": "node",
      "id": 3779293139,
      "lat": -8.6764156,
      "lon": 115.2279366
    },
    {
      "type": "node",
      "id": 3779293140,
      "lat": -8.6765046,
      "lon": 115.2279416
    },
    {
      "type": "node",
      "id": 3779293141,
      "lat": -8.6764995,
      "lon": 115.2280341
    },
    {
      "type": "node",
      "id": 3779293142,
      "lat": -8.6765228,
      "lon": 115.2279317
    },
    {
      "type": "node",
      "id": 3779293143,
      "lat": -8.6765199,
      "lon": 115.2280024
    },
    {
      "type": "node",
      "id": 3779293144,
      "lat": -8.6765759,
      "lon": 115.2280048
    },
    {
      "type": "node",
      "id": 3779293145,
      "lat": -8.6765788,
      "lon": 115.2279341
    },
    {
      "type": "node",
      "id": 3779293146,
      "lat": -8.6764591,
      "lon": 115.2280318
    },
    {
      "type": "node",
      "id": 3779293147,
      "lat": -8.6764561,
      "lon": 115.2280873
    },
    {
      "type": "node",
      "id": 3779293148,
      "lat": -8.6771122,
      "lon": 115.2279349
    },
    {
      "type": "node",
      "id": 3779293149,
      "lat": -8.6772016,
      "lon": 115.2279382
    },
    {
      "type": "node",
      "id": 3779293150,
      "lat": -8.677197,
      "lon": 115.2280664
    },
    {
      "type": "node",
      "id": 3779293151,
      "lat": -8.6771075,
      "lon": 115.228063
    },
    {
      "type": "node",
      "id": 3779315668,
      "lat": -8.6773979,
      "lon": 115.2309957
    },
    {
      "type": "node",
      "id": 3779315672,
      "lat": -8.6793924,
      "lon": 115.229935
    },
    {
      "type": "node",
      "id": 3779315673,
      "lat": -8.6793858,
      "lon": 115.2301005
    },
    {
      "type": "node",
      "id": 3779315674,
      "lat": -8.6794846,
      "lon": 115.2301045
    },
    {
      "type": "node",
      "id": 3779315675,
      "lat": -8.6794912,
      "lon": 115.229939
    },
    {
      "type": "node",
      "id": 4571149658,
      "lat": -8.6750713,
      "lon": 115.2302825
    },
    {
      "type": "node",
      "id": 4571149659,
      "lat": -8.6750726,
      "lon": 115.2303761
    },
    {
      "type": "node",
      "id": 4571149660,
      "lat": -8.6751521,
      "lon": 115.230375
    },
    {
      "type": "node",
      "id": 4571149661,
      "lat": -8.6751525,
      "lon": 115.2304074
    },
    {
      "type": "node",
      "id": 4571149662,
      "lat": -8.6750237,
      "lon": 115.2304091
    },
    {
      "type": "node",
      "id": 4571149663,
      "lat": -8.6750242,
      "lon": 115.2304515
    },
    {
      "type": "node",
      "id": 4571149664,
      "lat": -8.6752614,
      "lon": 115.2304483
    },
    {
      "type": "node",
      "id": 4571149665,
      "lat": -8.6752586,
      "lon": 115.2302327
    },
    {
      "type": "node",
      "id": 4571149666,
      "lat": -8.67518,
      "lon": 115.2302338
    },
    {
      "type": "node",
      "id": 4571149667,
      "lat": -8.6751806,
      "lon": 115.2302811
    },
    {
      "type": "node",
      "id": 4571149813,
      "lat": -8.6771739,
      "lon": 115.2312189
    },
    {
      "type": "node",
      "id": 4571149818,
      "lat": -8.6773564,
      "lon": 115.2312283
    },
    {
      "type": "node",
      "id": 4574636760,
      "lat": -8.6738981,
      "lon": 115.2266794
    },
    {
      "type": "node",
      "id": 4574636761,
      "lat": -8.6739026,
      "lon": 115.2267868
    },
    {
      "type": "node",
      "id": 4574636762,
      "lat": -8.673793,
      "lon": 115.2267915
    },
    {
      "type": "node",
      "id": 4574636763,
      "lat": -8.6737943,
      "lon": 115.2268237
    },
    {
      "type": "node",
      "id": 4574636764,
      "lat": -8.6737395,
      "lon": 115.226826
    },
    {
      "type": "node",
      "id": 4574636765,
      "lat": -8.6737349,
      "lon": 115.2267173
    },
    {
      "type": "node",
      "id": 4574636766,
      "lat": -8.6738516,
      "lon": 115.2267122
    },
    {
      "type": "node",
      "id": 4574636767,
      "lat": -8.6738503,
      "lon": 115.2266815
    },
    {
      "type": "node",
      "id": 9797666412,
      "lat": -8.6769075,
      "lon": 115.2310782
    },
    {
      "type": "node",
      "id": 3289790115,
      "lat": -8.6742249,
      "lon": 115.2346207
    },
    {
      "type": "node",
      "id": 4213385198,
      "lat": -8.6772553,
      "lon": 115.2382395
    },
    {
      "type": "node",
      "id": 4213385199,
      "lat": -8.6774523,
      "lon": 115.2382354
    },
    {
      "type": "node",
      "id": 4213385200,
      "lat": -8.6774503,
      "lon": 115.2383005
    },
    {
      "type": "node",
      "id": 4213385201,
      "lat": -8.6772553,
      "lon": 115.2383391
    },
    {
      "type": "node",
      "id": 4251891430,
      "lat": -8.675149,
      "lon": 115.2335069
    },
    {
      "type": "node",
      "id": 4251891431,
      "lat": -8.6753932,
      "lon": 115.2335107
    },
    {
      "type": "node",
      "id": 4251891432,
      "lat": -8.6753914,
      "lon": 115.2336318
    },
    {
      "type": "node",
      "id": 4251891433,
      "lat": -8.6751472,
      "lon": 115.233628
    },
    {
      "type": "node",
      "id": 4251891612,
      "lat": -8.6753925,
      "lon": 115.233561
    },
    {
      "type": "node",
      "id": 4273368663,
      "lat": -8.6740043,
      "lon": 115.2346235
    },
    {
      "type": "node",
      "id": 4273368664,
      "lat": -8.6740055,
      "lon": 115.2347041
    },
    {
      "type": "node",
      "id": 4273368665,
      "lat": -8.6740886,
      "lon": 115.2347005
    },
    {
      "type": "node",
      "id": 4273368666,
      "lat": -8.6740874,
      "lon": 115.2346749
    },
    {
      "type": "node",
      "id": 4273368667,
      "lat": -8.6742248,
      "lon": 115.2346725
    },
    {
      "type": "node",
      "id": 3178622766,
      "lat": -8.6686673,
      "lon": 115.2158164
    },
    {
      "type": "node",
      "id": 3188075760,
      "lat": -8.6689968,
      "lon": 115.2129344
    },
    {
      "type": "node",
      "id": 3188080662,
      "lat": -8.6692565,
      "lon": 115.2130274
    },
    {
      "type": "node",
      "id": 3188080663,
      "lat": -8.6692439,
      "lon": 115.2129076
    },
    {
      "type": "node",
      "id": 3207442050,
      "lat": -8.6688548,
      "lon": 115.2160905
    },
    {
      "type": "node",
      "id": 3278192208,
      "lat": -8.6687108,
      "lon": 115.2161038
    },
    {
      "type": "node",
      "id": 3278192211,
      "lat": -8.668628,
      "lon": 115.2158164
    },
    {
      "type": "node",
      "id": 3278192212,
      "lat": -8.668698,
      "lon": 115.2158188
    },
    {
      "type": "node",
      "id": 3278192213,
      "lat": -8.668698,
      "lon": 115.2158754
    },
    {
      "type": "node",
      "id": 3278192214,
      "lat": -8.6687504,
      "lon": 115.2158719
    },
    {
      "type": "node",
      "id": 3278192215,
      "lat": -8.6687574,
      "lon": 115.2159622
    },
    {
      "type": "node",
      "id": 3278192216,
      "lat": -8.6688606,
      "lon": 115.2159515
    },
    {
      "type": "node",
      "id": 3278192217,
      "lat": -8.6688746,
      "lon": 115.216086
    },
    {
      "type": "node",
      "id": 3278192233,
      "lat": -8.6677739,
      "lon": 115.2148088
    },
    {
      "type": "node",
      "id": 3278192234,
      "lat": -8.6677868,
      "lon": 115.2143467
    },
    {
      "type": "node",
      "id": 3278192235,
      "lat": -8.6680023,
      "lon": 115.2143528
    },
    {
      "type": "node",
      "id": 3278192236,
      "lat": -8.6679893,
      "lon": 115.214815
    },
    {
      "type": "node",
      "id": 3278192250,
      "lat": -8.6678877,
      "lon": 115.2148693
    },
    {
      "type": "node",
      "id": 3278192251,
      "lat": -8.6678541,
      "lon": 115.2148094
    },
    {
      "type": "node",
      "id": 3278192252,
      "lat": -8.6678527,
      "lon": 115.2148662
    },
    {
      "type": "node",
      "id": 3278192253,
      "lat": -8.6678541,
      "lon": 115.2148545
    },
    {
      "type": "node",
      "id": 3278192254,
      "lat": -8.6679189,
      "lon": 115.2148112
    },
    {
      "type": "node",
      "id": 3278192255,
      "lat": -8.6679189,
      "lon": 115.2148705
    },
    {
      "type": "node",
      "id": 3278192256,
      "lat": -8.6679192,
      "lon": 115.2148528
    },
    {
      "type": "node",
      "id": 3278194167,
      "lat": -8.6673437,
      "lon": 115.2153086
    },
    {
      "type": "node",
      "id": 3278194168,
      "lat": -8.6673468,
      "lon": 115.2151492
    },
    {
      "type": "node",
      "id": 3278194169,
      "lat": -8.6675029,
      "lon": 115.2151522
    },
    {
      "type": "node",
      "id": 3278194170,
      "lat": -8.6674998,
      "lon": 115.2153116
    },
    {
      "type": "node",
      "id": 3283499923,
      "lat": -8.6672736,
      "lon": 115.2181466
    },
    {
      "type": "node",
      "id": 3283499924,
      "lat": -8.6675408,
      "lon": 115.2181444
    },
    {
      "type": "node",
      "id": 3283499925,
      "lat": -8.6675448,
      "lon": 115.2182704
    },
    {
      "type": "node",
      "id": 3283499926,
      "lat": -8.667366,
      "lon": 115.2182704
    },
    {
      "type": "node",
      "id": 3283499927,
      "lat": -8.667366,
      "lon": 115.2183599
    },
    {
      "type": "node",
      "id": 3283499928,
      "lat": -8.6672834,
      "lon": 115.2183621
    },
    {
      "type": "node",
      "id": 3298147850,
      "lat": -8.6686962,
      "lon": 115.2159462
    },
    {
      "type": "node",
      "id": 3298147851,
      "lat": -8.6686245,
      "lon": 115.2159498
    },
    {
      "type": "node",
      "id": 3955851355,
      "lat": -8.6733691,
      "lon": 115.2174932
    },
    {
      "type": "node",
      "id": 3955851356,
      "lat": -8.673457,
      "lon": 115.2174906
    },
    {
      "type": "node",
      "id": 3955851457,
      "lat": -8.6734588,
      "lon": 115.2175534
    },
    {
      "type": "node",
      "id": 3955851458,
      "lat": -8.6734821,
      "lon": 115.2175528
    },
    {
      "type": "node",
      "id": 3955851459,
      "lat": -8.673487,
      "lon": 115.2177267
    },
    {
      "type": "node",
      "id": 3955851460,
      "lat": -8.6733359,
      "lon": 115.2177311
    },
    {
      "type": "node",
      "id": 3955851461,
      "lat": -8.6733339,
      "lon": 115.2176579
    },
    {
      "type": "node",
      "id": 3955851462,
      "lat": -8.6733738,
      "lon": 115.2176567
    },
    {
      "type": "node",
      "id": 3955851463,
      "lat": -8.6733722,
      "lon": 115.2176013
    },
    {
      "type": "node",
      "id": 3955851464,
      "lat": -8.6734033,
      "lon": 115.2176004
    },
    {
      "type": "node",
      "id": 3955851465,
      "lat": -8.6734017,
      "lon": 115.2175463
    },
    {
      "type": "node",
      "id": 3955851466,
      "lat": -8.6733706,
      "lon": 115.2175472
    },
    {
      "type": "node",
      "id": 5658810687,
      "lat": -8.6692002,
      "lon": 115.2130335
    },
    {
      "type": "node",
      "id": 5658810688,
      "lat": -8.6690095,
      "lon": 115.2130541
    },
    {
      "type": "node",
      "id": 3178441833,
      "lat": -8.6718088,
      "lon": 115.220893
    },
    {
      "type": "node",
      "id": 3178441834,
      "lat": -8.6718228,
      "lon": 115.2211611
    },
    {
      "type": "node",
      "id": 3178441835,
      "lat": -8.6719652,
      "lon": 115.2211535
    },
    {
      "type": "node",
      "id": 3178441836,
      "lat": -8.6719511,
      "lon": 115.2208842
    },
    {
      "type": "node",
      "id": 3251510994,
      "lat": -8.6727909,
      "lon": 115.2224109
    },
    {
      "type": "node",
      "id": 3251510995,
      "lat": -8.672798,
      "lon": 115.2224799
    },
    {
      "type": "node",
      "id": 3251510996,
      "lat": -8.6727639,
      "lon": 115.2224828
    },
    {
      "type": "node",
      "id": 3251510997,
      "lat": -8.6727724,
      "lon": 115.2226222
    },
    {
      "type": "node",
      "id": 3251510998,
      "lat": -8.672808,
      "lon": 115.2226193
    },
    {
      "type": "node",
      "id": 3251510999,
      "lat": -8.6728207,
      "lon": 115.2227975
    },
    {
      "type": "node",
      "id": 3251511000,
      "lat": -8.6730282,
      "lon": 115.2227817
    },
    {
      "type": "node",
      "id": 3251511001,
      "lat": -8.6730225,
      "lon": 115.2226825
    },
    {
      "type": "node",
      "id": 3251511002,
      "lat": -8.6730722,
      "lon": 115.2226796
    },
    {
      "type": "node",
      "id": 3251511003,
      "lat": -8.6730694,
      "lon": 115.2226006
    },
    {
      "type": "node",
      "id": 3251511004,
      "lat": -8.6729614,
      "lon": 115.2226064
    },
    {
      "type": "node",
      "id": 3251511005,
      "lat": -8.6729571,
      "lon": 115.2225144
    },
    {
      "type": "node",
      "id": 3251511006,
      "lat": -8.6729955,
      "lon": 115.2225115
    },
    {
      "type": "node",
      "id": 3251511007,
      "lat": -8.6729912,
      "lon": 115.2224138
    },
    {
      "type": "node",
      "id": 3251511008,
      "lat": -8.6729102,
      "lon": 115.2224195
    },
    {
      "type": "node",
      "id": 3251511009,
      "lat": -8.6729074,
      "lon": 115.2224023
    },
    {
      "type": "node",
      "id": 3251511021,
      "lat": -8.6730699,
      "lon": 115.2226164
    },
    {
      "type": "node",
      "id": 3274260934,
      "lat": -8.669232,
      "lon": 115.2196965
    },
    {
      "type": "node",
      "id": 3274260935,
      "lat": -8.6692346,
      "lon": 115.2198083
    },
    {
      "type": "node",
      "id": 3274260936,
      "lat": -8.6693993,
      "lon": 115.2198043
    },
    {
      "type": "node",
      "id": 3274260937,
      "lat": -8.6693967,
      "lon": 115.2196925
    },
    {
      "type": "node",
      "id": 3671675993,
      "lat": -8.6728387,
      "lon": 115.2252126
    },
    {
      "type": "node",
      "id": 3671675994,
      "lat": -8.6728415,
      "lon": 115.2252862
    },
    {
      "type": "node",
      "id": 3671675995,
      "lat": -8.6730156,
      "lon": 115.2252796
    },
    {
      "type": "node",
      "id": 3671675996,
      "lat": -8.6730129,
      "lon": 115.225206
    },
    {
      "type": "node",
      "id": 3671675999,
      "lat": -8.6729187,
      "lon": 115.2252826
    },
    {
      "type": "node",
      "id": 3671676002,
      "lat": -8.673001,
      "lon": 115.2252808
    },
    {
      "type": "node",
      "id": 3671676010,
      "lat": -8.6728684,
      "lon": 115.2244344
    },
    {
      "type": "node",
      "id": 3671676011,
      "lat": -8.6728809,
      "lon": 115.2245506
    },
    {
      "type": "node",
      "id": 3671676012,
      "lat": -8.6730907,
      "lon": 115.2245276
    },
    {
      "type": "node",
      "id": 3671676013,
      "lat": -8.6730782,
      "lon": 115.2244114
    },
    {
      "type": "node",
      "id": 3671676022,
      "lat": -8.6729092,
      "lon": 115.2252099
    },
    {
      "type": "node",
      "id": 3718364800,
      "lat": -8.671893,
      "lon": 115.2204864
    },
    {
      "type": "node",
      "id": 3718364801,
      "lat": -8.6719138,
      "lon": 115.2208862
    },
    {
      "type": "node",
      "id": 3718364802,
      "lat": -8.6717654,
      "lon": 115.2204933
    },
    {
      "type": "node",
      "id": 3718364803,
      "lat": -8.6717863,
      "lon": 115.2208942
    },
    {
      "type": "node",
      "id": 4574637274,
      "lat": -8.6729602,
      "lon": 115.2245419
    },
    {
      "type": "node",
      "id": 4574637277,
      "lat": -8.673078,
      "lon": 115.224529
    },
    {
      "type": "node",
      "id": 10074333165,
      "lat": -8.6713766,
      "lon": 115.2200007
    },
    {
      "type": "node",
      "id": 10074333166,
      "lat": -8.6713776,
      "lon": 115.2200536
    },
    {
      "type": "node",
      "id": 10074333167,
      "lat": -8.6713052,
      "lon": 115.2200598
    },
    {
      "type": "node",
      "id": 10074333168,
      "lat": -8.6713001,
      "lon": 115.2200054
    },
    {
      "type": "node",
      "id": 3279934888,
      "lat": -8.6636977,
      "lon": 115.2152068
    },
    {
      "type": "node",
      "id": 3279934889,
      "lat": -8.663708,
      "lon": 115.2150993
    },
    {
      "type": "node",
      "id": 3279934913,
      "lat": -8.6638106,
      "lon": 115.2151082
    },
    {
      "type": "node",
      "id": 3283499919,
      "lat": -8.6622257,
      "lon": 115.2183686
    },
    {
      "type": "node",
      "id": 3283499920,
      "lat": -8.6623371,
      "lon": 115.2183697
    },
    {
      "type": "node",
      "id": 3283499921,
      "lat": -8.6623363,
      "lon": 115.218458
    },
    {
      "type": "node",
      "id": 3283499922,
      "lat": -8.6622249,
      "lon": 115.2184569
    },
    {
      "type": "node",
      "id": 3307309120,
      "lat": -8.6636989,
      "lon": 115.2151915
    },
    {
      "type": "node",
      "id": 9322627936,
      "lat": -8.6638282,
      "lon": 115.2151098
    },
    {
      "type": "node",
      "id": 9322627937,
      "lat": -8.663819,
      "lon": 115.2152173
    },
    {
      "type": "node",
      "id": 3176175093,
      "lat": -8.673144,
      "lon": 115.2270008
    },
    {
      "type": "node",
      "id": 3176175094,
      "lat": -8.6735895,
      "lon": 115.2269686
    },
    {
      "type": "node",
      "id": 3176175095,
      "lat": -8.6736028,
      "lon": 115.2271322
    },
    {
      "type": "node",
      "id": 3176175096,
      "lat": -8.6732156,
      "lon": 115.2271617
    },
    {
      "type": "node",
      "id": 3176175097,
      "lat": -8.6732103,
      "lon": 115.2270598
    },
    {
      "type": "node",
      "id": 3176175098,
      "lat": -8.6731494,
      "lon": 115.2270651
    },
    {
      "type": "node",
      "id": 3178649561,
      "lat": -8.6688658,
      "lon": 115.2281657
    },
    {
      "type": "node",
      "id": 3178649562,
      "lat": -8.6689478,
      "lon": 115.2281598
    },
    {
      "type": "node",
      "id": 3178649563,
      "lat": -8.6689171,
      "lon": 115.2277221
    },
    {
      "type": "node",
      "id": 3178649564,
      "lat": -8.668835,
      "lon": 115.227728
    },
    {
      "type": "node",
      "id": 3251579440,
      "lat": -8.6731585,
      "lon": 115.2307642
    },
    {
      "type": "node",
      "id": 3251579441,
      "lat": -8.6731585,
      "lon": 115.2307041
    },
    {
      "type": "node",
      "id": 3251579442,
      "lat": -8.6733593,
      "lon": 115.2306965
    },
    {
      "type": "node",
      "id": 3251579443,
      "lat": -8.673357,
      "lon": 115.2305261
    },
    {
      "type": "node",
      "id": 3251579444,
      "lat": -8.6731747,
      "lon": 115.2305284
    },
    {
      "type": "node",
      "id": 3251579445,
      "lat": -8.6731747,
      "lon": 115.2304747
    },
    {
      "type": "node",
      "id": 3251579446,
      "lat": -8.6734078,
      "lon": 115.2304677
    },
    {
      "type": "node",
      "id": 3251579447,
      "lat": -8.6734147,
      "lon": 115.2307572
    },
    {
      "type": "node",
      "id": 3279934928,
      "lat": -8.6730816,
      "lon": 115.2283708
    },
    {
      "type": "node",
      "id": 3279934929,
      "lat": -8.6730788,
      "lon": 115.2284917
    },
    {
      "type": "node",
      "id": 3279934930,
      "lat": -8.6734023,
      "lon": 115.2284992
    },
    {
      "type": "node",
      "id": 3279934931,
      "lat": -8.6734031,
      "lon": 115.2284627
    },
    {
      "type": "node",
      "id": 3279934932,
      "lat": -8.6736015,
      "lon": 115.2284673
    },
    {
      "type": "node",
      "id": 3279934933,
      "lat": -8.6736049,
      "lon": 115.2283194
    },
    {
      "type": "node",
      "id": 3279934934,
      "lat": -8.67339,
      "lon": 115.2283144
    },
    {
      "type": "node",
      "id": 3279934935,
      "lat": -8.6733885,
      "lon": 115.228378
    },
    {
      "type": "node",
      "id": 3285646711,
      "lat": -8.6731822,
      "lon": 115.2307636
    },
    {
      "type": "node",
      "id": 3285647870,
      "lat": -8.673175,
      "lon": 115.2304162
    },
    {
      "type": "node",
      "id": 3285647871,
      "lat": -8.6731382,
      "lon": 115.2304145
    },
    {
      "type": "node",
      "id": 3285647872,
      "lat": -8.67314,
      "lon": 115.2303631
    },
    {
      "type": "node",
      "id": 3285647873,
      "lat": -8.6731732,
      "lon": 115.2303631
    },
    {
      "type": "node",
      "id": 3285647874,
      "lat": -8.6731732,
      "lon": 115.2303136
    },
    {
      "type": "node",
      "id": 3285647875,
      "lat": -8.6732379,
      "lon": 115.2303136
    },
    {
      "type": "node",
      "id": 3285647876,
      "lat": -8.673238,
      "lon": 115.2304728
    },
    {
      "type": "node",
      "id": 3285647877,
      "lat": -8.6731551,
      "lon": 115.229975
    },
    {
      "type": "node",
      "id": 3285647878,
      "lat": -8.6731546,
      "lon": 115.2301271
    },
    {
      "type": "node",
      "id": 3285647879,
      "lat": -8.6732639,
      "lon": 115.2301275
    },
    {
      "type": "node",
      "id": 3285647880,
      "lat": -8.6732644,
      "lon": 115.2299754
    },
    {
      "type": "node",
      "id": 3285647884,
      "lat": -8.6731493,
      "lon": 115.2296754
    },
    {
      "type": "node",
      "id": 3285647888,
      "lat": -8.673149,
      "lon": 115.2295718
    },
    {
      "type": "node",
      "id": 3285647889,
      "lat": -8.6733241,
      "lon": 115.2295664
    },
    {
      "type": "node",
      "id": 3285647890,
      "lat": -8.6733229,
      "lon": 115.2296716
    },
    {
      "type": "node",
      "id": 3285647958,
      "lat": -8.6733948,
      "lon": 115.2301327
    },
    {
      "type": "node",
      "id": 3285647959,
      "lat": -8.6733933,
      "lon": 115.2300234
    },
    {
      "type": "node",
      "id": 3285647960,
      "lat": -8.6733801,
      "lon": 115.2300236
    },
    {
      "type": "node",
      "id": 3285647961,
      "lat": -8.6733793,
      "lon": 115.2299655
    },
    {
      "type": "node",
      "id": 3285647962,
      "lat": -8.6734905,
      "lon": 115.2299639
    },
    {
      "type": "node",
      "id": 3285647963,
      "lat": -8.6734914,
      "lon": 115.2300244
    },
    {
      "type": "node",
      "id": 3285647964,
      "lat": -8.6734568,
      "lon": 115.2300249
    },
    {
      "type": "node",
      "id": 3285647965,
      "lat": -8.6734575,
      "lon": 115.230078
    },
    {
      "type": "node",
      "id": 3285647966,
      "lat": -8.6734418,
      "lon": 115.2300782
    },
    {
      "type": "node",
      "id": 3285647967,
      "lat": -8.6734425,
      "lon": 115.2301321
    },
    {
      "type": "node",
      "id": 3293750432,
      "lat": -8.6711174,
      "lon": 115.2276283
    },
    {
      "type": "node",
      "id": 3293750433,
      "lat": -8.6711296,
      "lon": 115.2279344
    },
    {
      "type": "node",
      "id": 3293750434,
      "lat": -8.6711541,
      "lon": 115.2279344
    },
    {
      "type": "node",
      "id": 3293750435,
      "lat": -8.6711716,
      "lon": 115.2279734
    },
    {
      "type": "node",
      "id": 3293750436,
      "lat": -8.6712171,
      "lon": 115.2279751
    },
    {
      "type": "node",
      "id": 3293750437,
      "lat": -8.6712188,
      "lon": 115.2280318
    },
    {
      "type": "node",
      "id": 3293750438,
      "lat": -8.6712731,
      "lon": 115.22803
    },
    {
      "type": "node",
      "id": 3293750439,
      "lat": -8.6712742,
      "lon": 115.2280139
    },
    {
      "type": "node",
      "id": 3293750440,
      "lat": -8.6713938,
      "lon": 115.2280105
    },
    {
      "type": "node",
      "id": 3293750441,
      "lat": -8.671391,
      "lon": 115.2278872
    },
    {
      "type": "node",
      "id": 3293750442,
      "lat": -8.6713632,
      "lon": 115.2278886
    },
    {
      "type": "node",
      "id": 3293750443,
      "lat": -8.6713526,
      "lon": 115.227623
    },
    {
      "type": "node",
      "id": 4524227595,
      "lat": -8.673238,
      "lon": 115.230425
    },
    {
      "type": "node",
      "id": 4524227597,
      "lat": -8.6733203,
      "lon": 115.2304712
    },
    {
      "type": "node",
      "id": 4524227598,
      "lat": -8.6733736,
      "lon": 115.2304695
    },
    {
      "type": "node",
      "id": 3180245325,
      "lat": -8.6733487,
      "lon": 115.2338238
    },
    {
      "type": "node",
      "id": 3180245326,
      "lat": -8.673545,
      "lon": 115.2338238
    },
    {
      "type": "node",
      "id": 3251831806,
      "lat": -8.6727359,
      "lon": 115.2360338
    },
    {
      "type": "node",
      "id": 3251831807,
      "lat": -8.6727387,
      "lon": 115.2361932
    },
    {
      "type": "node",
      "id": 3251831808,
      "lat": -8.6729632,
      "lon": 115.2361892
    },
    {
      "type": "node",
      "id": 3251831809,
      "lat": -8.672961,
      "lon": 115.236065
    },
    {
      "type": "node",
      "id": 3251831810,
      "lat": -8.6728247,
      "lon": 115.2360675
    },
    {
      "type": "node",
      "id": 3251831811,
      "lat": -8.6728241,
      "lon": 115.2360323
    },
    {
      "type": "node",
      "id": 3281407599,
      "lat": -8.6734209,
      "lon": 115.2355241
    },
    {
      "type": "node",
      "id": 3281407600,
      "lat": -8.6734308,
      "lon": 115.2357
    },
    {
      "type": "node",
      "id": 3281407601,
      "lat": -8.6735381,
      "lon": 115.2356938
    },
    {
      "type": "node",
      "id": 3281407602,
      "lat": -8.6735282,
      "lon": 115.2355179
    },
    {
      "type": "node",
      "id": 3281407654,
      "lat": -8.6734025,
      "lon": 115.2348504
    },
    {
      "type": "node",
      "id": 3281407655,
      "lat": -8.6734082,
      "lon": 115.2349557
    },
    {
      "type": "node",
      "id": 3281407656,
      "lat": -8.6735874,
      "lon": 115.2349449
    },
    {
      "type": "node",
      "id": 3281407673,
      "lat": -8.6732901,
      "lon": 115.2338252
    },
    {
      "type": "node",
      "id": 3281407674,
      "lat": -8.6732901,
      "lon": 115.2337959
    },
    {
      "type": "node",
      "id": 3281407675,
      "lat": -8.6734393,
      "lon": 115.2337928
    },
    {
      "type": "node",
      "id": 3281407676,
      "lat": -8.6734423,
      "lon": 115.2337697
    },
    {
      "type": "node",
      "id": 3281407677,
      "lat": -8.6735444,
      "lon": 115.2337682
    },
    {
      "type": "node",
      "id": 3281407678,
      "lat": -8.6733266,
      "lon": 115.2337951
    },
    {
      "type": "node",
      "id": 3281407679,
      "lat": -8.6733251,
      "lon": 115.2336403
    },
    {
      "type": "node",
      "id": 3281407680,
      "lat": -8.6734804,
      "lon": 115.2336449
    },
    {
      "type": "node",
      "id": 3281407681,
      "lat": -8.6734804,
      "lon": 115.233668
    },
    {
      "type": "node",
      "id": 3281407682,
      "lat": -8.6735078,
      "lon": 115.233668
    },
    {
      "type": "node",
      "id": 3281407683,
      "lat": -8.6735109,
      "lon": 115.2336079
    },
    {
      "type": "node",
      "id": 3281407684,
      "lat": -8.6735398,
      "lon": 115.2336079
    },
    {
      "type": "node",
      "id": 3281407685,
      "lat": -8.6734712,
      "lon": 115.2337693
    },
    {
      "type": "node",
      "id": 3281407686,
      "lat": -8.6734698,
      "lon": 115.2337081
    },
    {
      "type": "node",
      "id": 3281407687,
      "lat": -8.6734393,
      "lon": 115.2337081
    },
    {
      "type": "node",
      "id": 3281407692,
      "lat": -8.673532,
      "lon": 115.2336079
    },
    {
      "type": "node",
      "id": 3281407693,
      "lat": -8.673509,
      "lon": 115.2336447
    },
    {
      "type": "node",
      "id": 3289790123,
      "lat": -8.6735828,
      "lon": 115.2348785
    },
    {
      "type": "node",
      "id": 3289790124,
      "lat": -8.6735813,
      "lon": 115.23484
    },
    {
      "type": "node",
      "id": 3786140176,
      "lat": -8.6671784,
      "lon": 115.2376699
    },
    {
      "type": "node",
      "id": 3786140177,
      "lat": -8.6671616,
      "lon": 115.2374963
    },
    {
      "type": "node",
      "id": 3786140181,
      "lat": -8.6671271,
      "lon": 115.2378624
    },
    {
      "type": "node",
      "id": 3786140184,
      "lat": -8.6671412,
      "lon": 115.2378688
    },
    {
      "type": "node",
      "id": 3786140185,
      "lat": -8.667151,
      "lon": 115.2379612
    },
    {
      "type": "node",
      "id": 3786140190,
      "lat": -8.6671629,
      "lon": 115.2379777
    },
    {
      "type": "node",
      "id": 3786140191,
      "lat": -8.6671703,
      "lon": 115.2380567
    },
    {
      "type": "node",
      "id": 5088088836,
      "lat": -8.6727737,
      "lon": 115.2361926
    },
    {
      "type": "node",
      "id": 5088088839,
      "lat": -8.6729211,
      "lon": 115.2361899
    },
    {
      "type": "node",
      "id": 3406563966,
      "lat": -8.6665476,
      "lon": 115.2265067
    },
    {
      "type": "node",
      "id": 3406563967,
      "lat": -8.6665494,
      "lon": 115.2266526
    },
    {
      "type": "node",
      "id": 3406563968,
      "lat": -8.6667653,
      "lon": 115.2266498
    },
    {
      "type": "node",
      "id": 3406563969,
      "lat": -8.6667634,
      "lon": 115.2265039
    },
    {
      "type": "node",
      "id": 4219336670,
      "lat": -8.6666642,
      "lon": 115.227595
    },
    {
      "type": "node",
      "id": 4219336671,
      "lat": -8.6666655,
      "lon": 115.2277321
    },
    {
      "type": "node",
      "id": 4219336672,
      "lat": -8.6667985,
      "lon": 115.2277308
    },
    {
      "type": "node",
      "id": 4219336673,
      "lat": -8.6667971,
      "lon": 115.2275937
    },
    {
      "type": "node",
      "id": 3175939346,
      "lat": -8.666737,
      "lon": 115.2360396
    },
    {
      "type": "node",
      "id": 3175939347,
      "lat": -8.6670367,
      "lon": 115.2360396
    },
    {
      "type": "node",
      "id": 3175939348,
      "lat": -8.6670393,
      "lon": 115.2360959
    },
    {
      "type": "node",
      "id": 3175939349,
      "lat": -8.6670764,
      "lon": 115.2360986
    },
    {
      "type": "node",
      "id": 3175939350,
      "lat": -8.6670791,
      "lon": 115.236179
    },
    {
      "type": "node",
      "id": 3175939351,
      "lat": -8.6670446,
      "lon": 115.236179
    },
    {
      "type": "node",
      "id": 3175939352,
      "lat": -8.6670473,
      "lon": 115.2362515
    },
    {
      "type": "node",
      "id": 3175939353,
      "lat": -8.6667423,
      "lon": 115.2362568
    },
    {
      "type": "node",
      "id": 3202475858,
      "lat": -8.6665888,
      "lon": 115.2357201
    },
    {
      "type": "node",
      "id": 3202475859,
      "lat": -8.6665883,
      "lon": 115.2357702
    },
    {
      "type": "node",
      "id": 3202475860,
      "lat": -8.6665538,
      "lon": 115.2357698
    },
    {
      "type": "node",
      "id": 3202476061,
      "lat": -8.6665533,
      "lon": 115.2358229
    },
    {
      "type": "node",
      "id": 3202476062,
      "lat": -8.666758,
      "lon": 115.235825
    },
    {
      "type": "node",
      "id": 3202476063,
      "lat": -8.6667571,
      "lon": 115.23592
    },
    {
      "type": "node",
      "id": 3202476064,
      "lat": -8.6669531,
      "lon": 115.235922
    },
    {
      "type": "node",
      "id": 3202476065,
      "lat": -8.666955,
      "lon": 115.2357238
    },
    {
      "type": "node",
      "id": 3715203614,
      "lat": -8.6658206,
      "lon": 115.2335286
    },
    {
      "type": "node",
      "id": 3715203615,
      "lat": -8.6658266,
      "lon": 115.2333701
    },
    {
      "type": "node",
      "id": 3715203616,
      "lat": -8.6659713,
      "lon": 115.2333802
    },
    {
      "type": "node",
      "id": 3715203617,
      "lat": -8.6659834,
      "lon": 115.2335368
    },
    {
      "type": "node",
      "id": 3780733422,
      "lat": -8.6668789,
      "lon": 115.2320497
    },
    {
      "type": "node",
      "id": 3780733423,
      "lat": -8.6669678,
      "lon": 115.2320466
    },
    {
      "type": "node",
      "id": 3780733424,
      "lat": -8.6669736,
      "lon": 115.2322816
    },
    {
      "type": "node",
      "id": 3780733425,
      "lat": -8.6666911,
      "lon": 115.232282
    },
    {
      "type": "node",
      "id": 3780733479,
      "lat": -8.6663483,
      "lon": 115.2381924
    },
    {
      "type": "node",
      "id": 3780733480,
      "lat": -8.6663536,
      "lon": 115.2383286
    },
    {
      "type": "node",
      "id": 3780733481,
      "lat": -8.6664541,
      "lon": 115.2383246
    },
    {
      "type": "node",
      "id": 3780733482,
      "lat": -8.6664586,
      "lon": 115.238439
    },
    {
      "type": "node",
      "id": 3780733483,
      "lat": -8.6665687,
      "lon": 115.2384345
    },
    {
      "type": "node",
      "id": 3780733484,
      "lat": -8.6665589,
      "lon": 115.2381839
    },
    {
      "type": "node",
      "id": 3780733485,
      "lat": -8.6661472,
      "lon": 115.2382339
    },
    {
      "type": "node",
      "id": 3780733486,
      "lat": -8.6661655,
      "lon": 115.2384228
    },
    {
      "type": "node",
      "id": 3780733487,
      "lat": -8.6662924,
      "lon": 115.2384103
    },
    {
      "type": "node",
      "id": 3780733488,
      "lat": -8.6662819,
      "lon": 115.2383017
    },
    {
      "type": "node",
      "id": 3780733489,
      "lat": -8.6662292,
      "lon": 115.2383069
    },
    {
      "type": "node",
      "id": 3780733490,
      "lat": -8.6662215,
      "lon": 115.2382266
    },
    {
      "type": "node",
      "id": 3780733491,
      "lat": -8.6660206,
      "lon": 115.2382925
    },
    {
      "type": "node",
      "id": 3780733492,
      "lat": -8.6661402,
      "lon": 115.2382818
    },
    {
      "type": "node",
      "id": 3780733493,
      "lat": -8.6661524,
      "lon": 115.2384208
    },
    {
      "type": "node",
      "id": 3780733494,
      "lat": -8.6660328,
      "lon": 115.2384315
    },
    {
      "type": "node",
      "id": 3786140175,
      "lat": -8.6669215,
      "lon": 115.2376954
    },
    {
      "type": "node",
      "id": 3786140178,
      "lat": -8.6669047,
      "lon": 115.2375217
    },
    {
      "type": "node",
      "id": 3786140179,
      "lat": -8.6669568,
      "lon": 115.2376983
    },
    {
      "type": "node",
      "id": 3786140180,
      "lat": -8.6671093,
      "lon": 115.2376828
    },
    {
      "type": "node",
      "id": 3786140182,
      "lat": -8.6669746,
      "lon": 115.2378779
    },
    {
      "type": "node",
      "id": 3786140183,
      "lat": -8.666962,
      "lon": 115.2378884
    },
    {
      "type": "node",
      "id": 3786140186,
      "lat": -8.667031,
      "lon": 115.2379743
    },
    {
      "type": "node",
      "id": 3786140187,
      "lat": -8.6670264,
      "lon": 115.2379314
    },
    {
      "type": "node",
      "id": 3786140188,
      "lat": -8.6669672,
      "lon": 115.2379378
    },
    {
      "type": "node",
      "id": 3786140189,
      "lat": -8.6669879,
      "lon": 115.2379944
    },
    {
      "type": "node",
      "id": 3786140192,
      "lat": -8.6669953,
      "lon": 115.2380734
    },
    {
      "type": "node",
      "id": 5099804030,
      "lat": -8.6668176,
      "lon": 115.2320793
    },
    {
      "type": "node",
      "id": 5099804031,
      "lat": -8.6668149,
      "lon": 115.232149
    },
    {
      "type": "node",
      "id": 5099804032,
      "lat": -8.6666877,
      "lon": 115.232082
    },
    {
      "type": "node",
      "id": 5099804033,
      "lat": -8.6668786,
      "lon": 115.2321517
    },
    {
      "type": "node",
      "id": 7010656207,
      "lat": -8.6666816,
      "lon": 115.2321944
    },
    {
      "type": "node",
      "id": 4278039321,
      "lat": -8.6598223,
      "lon": 115.1997725
    },
    {
      "type": "node",
      "id": 4278039322,
      "lat": -8.6599582,
      "lon": 115.1997595
    },
    {
      "type": "node",
      "id": 4278039323,
      "lat": -8.6599652,
      "lon": 115.199834
    },
    {
      "type": "node",
      "id": 4278039324,
      "lat": -8.6598293,
      "lon": 115.199847
    },
    {
      "type": "node",
      "id": 4278134120,
      "lat": -8.6599904,
      "lon": 115.2000419
    },
    {
      "type": "node",
      "id": 4278134121,
      "lat": -8.6599937,
      "lon": 115.2001212
    },
    {
      "type": "node",
      "id": 4278134122,
      "lat": -8.6600831,
      "lon": 115.2001174
    },
    {
      "type": "node",
      "id": 4278134123,
      "lat": -8.6600798,
      "lon": 115.2000381
    },
    {
      "type": "node",
      "id": 4278134139,
      "lat": -8.6598526,
      "lon": 115.1998448
    },
    {
      "type": "node",
      "id": 3309226053,
      "lat": -8.655433,
      "lon": 115.2101762
    },
    {
      "type": "node",
      "id": 3309226054,
      "lat": -8.6554455,
      "lon": 115.2102779
    },
    {
      "type": "node",
      "id": 3309226055,
      "lat": -8.6553252,
      "lon": 115.210293
    },
    {
      "type": "node",
      "id": 3309226056,
      "lat": -8.6553127,
      "lon": 115.2101913
    },
    {
      "type": "node",
      "id": 3309226062,
      "lat": -8.6553679,
      "lon": 115.2101844
    },
    {
      "type": "node",
      "id": 3337398476,
      "lat": -8.6566311,
      "lon": 115.210208
    },
    {
      "type": "node",
      "id": 3337398477,
      "lat": -8.6566435,
      "lon": 115.2102998
    },
    {
      "type": "node",
      "id": 3337398478,
      "lat": -8.656764,
      "lon": 115.2102831
    },
    {
      "type": "node",
      "id": 3337398479,
      "lat": -8.6567516,
      "lon": 115.2101913
    },
    {
      "type": "node",
      "id": 3337398484,
      "lat": -8.6567538,
      "lon": 115.2102074
    },
    {
      "type": "node",
      "id": 3337398657,
      "lat": -8.6566552,
      "lon": 115.2102982
    },
    {
      "type": "node",
      "id": 3337398662,
      "lat": -8.6567325,
      "lon": 115.2102875
    },
    {
      "type": "node",
      "id": 3337414872,
      "lat": -8.6553697,
      "lon": 115.2119535
    },
    {
      "type": "node",
      "id": 3337414873,
      "lat": -8.6553847,
      "lon": 115.2120504
    },
    {
      "type": "node",
      "id": 3337414874,
      "lat": -8.6554159,
      "lon": 115.212075
    },
    {
      "type": "node",
      "id": 3337414875,
      "lat": -8.6556121,
      "lon": 115.2120421
    },
    {
      "type": "node",
      "id": 3337414876,
      "lat": -8.6555925,
      "lon": 115.2119173
    },
    {
      "type": "node",
      "id": 4080824016,
      "lat": -8.6543823,
      "lon": 115.2104072
    },
    {
      "type": "node",
      "id": 4080824017,
      "lat": -8.6545077,
      "lon": 115.2103808
    },
    {
      "type": "node",
      "id": 4080824018,
      "lat": -8.6545178,
      "lon": 115.2104298
    },
    {
      "type": "node",
      "id": 4080824019,
      "lat": -8.6543924,
      "lon": 115.2104561
    },
    {
      "type": "node",
      "id": 4217329989,
      "lat": -8.6360412,
      "lon": 115.1908535
    },
    {
      "type": "node",
      "id": 5096632593,
      "lat": -8.6362331,
      "lon": 115.1907924
    },
    {
      "type": "node",
      "id": 5096632594,
      "lat": -8.636296,
      "lon": 115.1908798
    },
    {
      "type": "node",
      "id": 5096632596,
      "lat": -8.6360492,
      "lon": 115.1907735
    },
    {
      "type": "node",
      "id": 5103311449,
      "lat": -8.6362308,
      "lon": 115.1908147
    },
    {
      "type": "node",
      "id": 5103311451,
      "lat": -8.6363018,
      "lon": 115.190822
    },
    {
      "type": "node",
      "id": 5103570345,
      "lat": -8.636794,
      "lon": 115.1904021
    },
    {
      "type": "node",
      "id": 5103570348,
      "lat": -8.6366212,
      "lon": 115.1902863
    },
    {
      "type": "node",
      "id": 5103570349,
      "lat": -8.6366051,
      "lon": 115.1903676
    },
    {
      "type": "node",
      "id": 5103570350,
      "lat": -8.6369194,
      "lon": 115.1904268
    },
    {
      "type": "node",
      "id": 5103570351,
      "lat": -8.6369267,
      "lon": 115.1902802
    },
    {
      "type": "node",
      "id": 5103570352,
      "lat": -8.6366433,
      "lon": 115.1902294
    },
    {
      "type": "node",
      "id": 5103570353,
      "lat": -8.6366364,
      "lon": 115.1902872
    },
    {
      "type": "node",
      "id": 5103570356,
      "lat": -8.6367806,
      "lon": 115.1903997
    },
    {
      "type": "node",
      "id": 5103570371,
      "lat": -8.6362085,
      "lon": 115.1879524
    },
    {
      "type": "node",
      "id": 5103570372,
      "lat": -8.6361949,
      "lon": 115.1881351
    },
    {
      "type": "node",
      "id": 5103570373,
      "lat": -8.6363632,
      "lon": 115.1881479
    },
    {
      "type": "node",
      "id": 5103570374,
      "lat": -8.6363735,
      "lon": 115.188011
    },
    {
      "type": "node",
      "id": 5103570375,
      "lat": -8.63631,
      "lon": 115.1880062
    },
    {
      "type": "node",
      "id": 5103570376,
      "lat": -8.6363134,
      "lon": 115.1879605
    },
    {
      "type": "node",
      "id": 3787230150,
      "lat": -8.642094,
      "lon": 115.2090509
    },
    {
      "type": "node",
      "id": 3787230151,
      "lat": -8.6420932,
      "lon": 115.2090888
    },
    {
      "type": "node",
      "id": 3787230152,
      "lat": -8.6423089,
      "lon": 115.2090934
    },
    {
      "type": "node",
      "id": 3787230153,
      "lat": -8.6423096,
      "lon": 115.2090555
    },
    {
      "type": "node",
      "id": 4438497720,
      "lat": -8.6387969,
      "lon": 115.205389
    },
    {
      "type": "node",
      "id": 4438497723,
      "lat": -8.6389568,
      "lon": 115.2054121
    },
    {
      "type": "node",
      "id": 4438497725,
      "lat": -8.6388168,
      "lon": 115.2052615
    },
    {
      "type": "node",
      "id": 4438497726,
      "lat": -8.6389786,
      "lon": 115.2052828
    },
    {
      "type": "node",
      "id": 3791144107,
      "lat": -8.6378486,
      "lon": 115.211916
    },
    {
      "type": "node",
      "id": 3791144108,
      "lat": -8.6378463,
      "lon": 115.2120015
    },
    {
      "type": "node",
      "id": 3791144109,
      "lat": -8.6379621,
      "lon": 115.2120046
    },
    {
      "type": "node",
      "id": 3791144110,
      "lat": -8.6379643,
      "lon": 115.2119191
    },
    {
      "type": "node",
      "id": 3832527679,
      "lat": -8.6388135,
      "lon": 115.2084539
    },
    {
      "type": "node",
      "id": 3832527683,
      "lat": -8.6389309,
      "lon": 115.2086171
    },
    {
      "type": "node",
      "id": 3832527684,
      "lat": -8.6389375,
      "lon": 115.2084643
    },
    {
      "type": "node",
      "id": 3832527685,
      "lat": -8.6388037,
      "lon": 115.2086082
    },
    {
      "type": "node",
      "id": 4457703576,
      "lat": -8.6549383,
      "lon": 115.2183843
    },
    {
      "type": "node",
      "id": 4457703577,
      "lat": -8.655019,
      "lon": 115.2183761
    },
    {
      "type": "node",
      "id": 4457703578,
      "lat": -8.6550203,
      "lon": 115.2183887
    },
    {
      "type": "node",
      "id": 4457703579,
      "lat": -8.6550413,
      "lon": 115.2183865
    },
    {
      "type": "node",
      "id": 4457703580,
      "lat": -8.6550512,
      "lon": 115.2184864
    },
    {
      "type": "node",
      "id": 4457703581,
      "lat": -8.6550238,
      "lon": 115.2184892
    },
    {
      "type": "node",
      "id": 4457703582,
      "lat": -8.6550307,
      "lon": 115.2185585
    },
    {
      "type": "node",
      "id": 4457703583,
      "lat": -8.6549563,
      "lon": 115.218566
    },
    {
      "type": "node",
      "id": 3292216681,
      "lat": -8.6570977,
      "lon": 115.2298325
    },
    {
      "type": "node",
      "id": 3292216682,
      "lat": -8.6570951,
      "lon": 115.2299403
    },
    {
      "type": "node",
      "id": 3292216683,
      "lat": -8.6571316,
      "lon": 115.2299412
    },
    {
      "type": "node",
      "id": 3292216684,
      "lat": -8.6571342,
      "lon": 115.2298334
    },
    {
      "type": "node",
      "id": 3791203280,
      "lat": -8.6368273,
      "lon": 115.2145003
    },
    {
      "type": "node",
      "id": 3791203281,
      "lat": -8.6367873,
      "lon": 115.2146365
    },
    {
      "type": "node",
      "id": 3791203282,
      "lat": -8.6369344,
      "lon": 115.2146807
    },
    {
      "type": "node",
      "id": 3791203283,
      "lat": -8.6369744,
      "lon": 115.2145445
    },
    {
      "type": "node",
      "id": 3846417644,
      "lat": -8.6368003,
      "lon": 115.2143395
    },
    {
      "type": "node",
      "id": 3846417645,
      "lat": -8.637015,
      "lon": 115.2144103
    },
    {
      "type": "node",
      "id": 3846417646,
      "lat": -8.6369937,
      "lon": 115.2144766
    },
    {
      "type": "node",
      "id": 3846417647,
      "lat": -8.6367789,
      "lon": 115.2144057
    },
    {
      "type": "node",
      "id": 3846419285,
      "lat": -8.6355062,
      "lon": 115.2170354
    },
    {
      "type": "node",
      "id": 3846419286,
      "lat": -8.6357263,
      "lon": 115.2170463
    },
    {
      "type": "node",
      "id": 3846419287,
      "lat": -8.6357226,
      "lon": 115.2171228
    },
    {
      "type": "node",
      "id": 3846419288,
      "lat": -8.6355025,
      "lon": 115.2171118
    },
    {
      "type": "node",
      "id": 4196577516,
      "lat": -8.6354517,
      "lon": 115.2186915
    },
    {
      "type": "node",
      "id": 4196577517,
      "lat": -8.635563,
      "lon": 115.2186887
    },
    {
      "type": "node",
      "id": 4196577518,
      "lat": -8.6355661,
      "lon": 115.2188155
    },
    {
      "type": "node",
      "id": 4196577519,
      "lat": -8.6354548,
      "lon": 115.2188183
    },
    {
      "type": "node",
      "id": 3757426666,
      "lat": -8.6370837,
      "lon": 115.222877
    },
    {
      "type": "node",
      "id": 3757426667,
      "lat": -8.6371093,
      "lon": 115.2230796
    },
    {
      "type": "node",
      "id": 3757426668,
      "lat": -8.6372032,
      "lon": 115.2230675
    },
    {
      "type": "node",
      "id": 3757426669,
      "lat": -8.6371701,
      "lon": 115.2228051
    },
    {
      "type": "node",
      "id": 3757426670,
      "lat": -8.6371376,
      "lon": 115.2228093
    },
    {
      "type": "node",
      "id": 3757426671,
      "lat": -8.6371452,
      "lon": 115.222869
    },
    {
      "type": "node",
      "id": 4196577543,
      "lat": -8.6359156,
      "lon": 115.2196608
    },
    {
      "type": "node",
      "id": 4196577544,
      "lat": -8.6359765,
      "lon": 115.2196581
    },
    {
      "type": "node",
      "id": 4196577545,
      "lat": -8.6359845,
      "lon": 115.2198487
    },
    {
      "type": "node",
      "id": 4196577546,
      "lat": -8.6359236,
      "lon": 115.2198513
    },
    {
      "type": "node",
      "id": 4196577945,
      "lat": -8.6353477,
      "lon": 115.2214484
    },
    {
      "type": "node",
      "id": 4196577946,
      "lat": -8.6355797,
      "lon": 115.2214562
    },
    {
      "type": "node",
      "id": 4196577947,
      "lat": -8.6355753,
      "lon": 115.2215899
    },
    {
      "type": "node",
      "id": 4196577948,
      "lat": -8.6353433,
      "lon": 115.2215821
    },
    {
      "type": "node",
      "id": 4196578000,
      "lat": -8.6353354,
      "lon": 115.2221675
    },
    {
      "type": "node",
      "id": 4196578005,
      "lat": -8.6353338,
      "lon": 115.2222514
    },
    {
      "type": "node",
      "id": 4196578006,
      "lat": -8.6354956,
      "lon": 115.2222541
    },
    {
      "type": "node",
      "id": 4196578007,
      "lat": -8.6354977,
      "lon": 115.2221713
    },
    {
      "type": "node",
      "id": 4196648500,
      "lat": -8.6351319,
      "lon": 115.2249233
    },
    {
      "type": "node",
      "id": 4196648501,
      "lat": -8.6353059,
      "lon": 115.2249123
    },
    {
      "type": "node",
      "id": 4196648502,
      "lat": -8.635309,
      "lon": 115.2249627
    },
    {
      "type": "node",
      "id": 4196648503,
      "lat": -8.635135,
      "lon": 115.2249737
    },
    {
      "type": "node",
      "id": 4196648505,
      "lat": -8.6351038,
      "lon": 115.2249818
    },
    {
      "type": "node",
      "id": 4196648506,
      "lat": -8.6351116,
      "lon": 115.2251169
    },
    {
      "type": "node",
      "id": 4196648507,
      "lat": -8.6352991,
      "lon": 115.2251059
    },
    {
      "type": "node",
      "id": 4196648508,
      "lat": -8.6352914,
      "lon": 115.2249708
    },
    {
      "type": "node",
      "id": 4196648428,
      "lat": -8.6352032,
      "lon": 115.2264112
    },
    {
      "type": "node",
      "id": 4196648429,
      "lat": -8.6353808,
      "lon": 115.2264065
    },
    {
      "type": "node",
      "id": 4196648430,
      "lat": -8.6353828,
      "lon": 115.2264802
    },
    {
      "type": "node",
      "id": 4196648431,
      "lat": -8.6352051,
      "lon": 115.226485
    },
    {
      "type": "node",
      "id": 4196648432,
      "lat": -8.6352239,
      "lon": 115.2264845
    },
    {
      "type": "node",
      "id": 4425081813,
      "lat": -8.6360126,
      "lon": 115.2331992
    },
    {
      "type": "node",
      "id": 4425081814,
      "lat": -8.6360119,
      "lon": 115.2332673
    },
    {
      "type": "node",
      "id": 4425081815,
      "lat": -8.6360854,
      "lon": 115.233268
    },
    {
      "type": "node",
      "id": 4425081816,
      "lat": -8.6360861,
      "lon": 115.2332
    },
    {
      "type": "node",
      "id": 4425081817,
      "lat": -8.6360859,
      "lon": 115.2332136
    },
    {
      "type": "node",
      "id": 4196488289,
      "lat": -8.6336017,
      "lon": 115.2173642
    },
    {
      "type": "node",
      "id": 4196488290,
      "lat": -8.6336134,
      "lon": 115.2176021
    },
    {
      "type": "node",
      "id": 4196488291,
      "lat": -8.6335675,
      "lon": 115.2176044
    },
    {
      "type": "node",
      "id": 4196488292,
      "lat": -8.6335748,
      "lon": 115.2177527
    },
    {
      "type": "node",
      "id": 4196488293,
      "lat": -8.6337245,
      "lon": 115.2177452
    },
    {
      "type": "node",
      "id": 4196488294,
      "lat": -8.6337056,
      "lon": 115.217359
    },
    {
      "type": "node",
      "id": 3669853137,
      "lat": -8.673803,
      "lon": 115.2392969
    },
    {
      "type": "node",
      "id": 3669853138,
      "lat": -8.6737999,
      "lon": 115.2391297
    },
    {
      "type": "node",
      "id": 3669853255,
      "lat": -8.6772528,
      "lon": 115.238758
    },
    {
      "type": "node",
      "id": 3669853256,
      "lat": -8.6772551,
      "lon": 115.2388819
    },
    {
      "type": "node",
      "id": 3669853257,
      "lat": -8.677386,
      "lon": 115.2388794
    },
    {
      "type": "node",
      "id": 3669853258,
      "lat": -8.6773879,
      "lon": 115.2389791
    },
    {
      "type": "node",
      "id": 3669853259,
      "lat": -8.6774597,
      "lon": 115.2389777
    },
    {
      "type": "node",
      "id": 3669853260,
      "lat": -8.6774555,
      "lon": 115.2387541
    },
    {
      "type": "node",
      "id": 3763560931,
      "lat": -8.6737899,
      "lon": 115.244024
    },
    {
      "type": "node",
      "id": 3763560932,
      "lat": -8.673938,
      "lon": 115.2440221
    },
    {
      "type": "node",
      "id": 3763560933,
      "lat": -8.6739386,
      "lon": 115.2440728
    },
    {
      "type": "node",
      "id": 3763560934,
      "lat": -8.6739101,
      "lon": 115.2440731
    },
    {
      "type": "node",
      "id": 3763560935,
      "lat": -8.6739106,
      "lon": 115.2441216
    },
    {
      "type": "node",
      "id": 3763560936,
      "lat": -8.6737911,
      "lon": 115.244123
    },
    {
      "type": "node",
      "id": 3763560955,
      "lat": -8.6737962,
      "lon": 115.2437551
    },
    {
      "type": "node",
      "id": 3763560956,
      "lat": -8.6737954,
      "lon": 115.2438348
    },
    {
      "type": "node",
      "id": 3763561157,
      "lat": -8.673963,
      "lon": 115.2438366
    },
    {
      "type": "node",
      "id": 3763561158,
      "lat": -8.6739639,
      "lon": 115.2437569
    },
    {
      "type": "node",
      "id": 3763561159,
      "lat": -8.6737682,
      "lon": 115.2436211
    },
    {
      "type": "node",
      "id": 3763561160,
      "lat": -8.6737667,
      "lon": 115.2437458
    },
    {
      "type": "node",
      "id": 3763561161,
      "lat": -8.6740115,
      "lon": 115.2437489
    },
    {
      "type": "node",
      "id": 3763561162,
      "lat": -8.674012,
      "lon": 115.2437067
    },
    {
      "type": "node",
      "id": 3763561163,
      "lat": -8.6738616,
      "lon": 115.2437048
    },
    {
      "type": "node",
      "id": 3763561164,
      "lat": -8.6738626,
      "lon": 115.2436223
    },
    {
      "type": "node",
      "id": 3763561165,
      "lat": -8.6738914,
      "lon": 115.2434725
    },
    {
      "type": "node",
      "id": 3763561166,
      "lat": -8.673895,
      "lon": 115.2436026
    },
    {
      "type": "node",
      "id": 3763561167,
      "lat": -8.6740225,
      "lon": 115.243599
    },
    {
      "type": "node",
      "id": 3763561168,
      "lat": -8.674019,
      "lon": 115.243469
    },
    {
      "type": "node",
      "id": 4622084354,
      "lat": -8.6742486,
      "lon": 115.2390907
    },
    {
      "type": "node",
      "id": 4622084355,
      "lat": -8.6743841,
      "lon": 115.2390924
    },
    {
      "type": "node",
      "id": 4622084356,
      "lat": -8.6743832,
      "lon": 115.2391738
    },
    {
      "type": "node",
      "id": 4622084357,
      "lat": -8.6742477,
      "lon": 115.2391722
    },
    {
      "type": "node",
      "id": 4411145063,
      "lat": -8.6778927,
      "lon": 115.2580663
    },
    {
      "type": "node",
      "id": 4847144824,
      "lat": -8.6778889,
      "lon": 115.2579993
    },
    {
      "type": "node",
      "id": 4847144825,
      "lat": -8.6779161,
      "lon": 115.2579977
    },
    {
      "type": "node",
      "id": 4847144826,
      "lat": -8.6779135,
      "lon": 115.2579505
    },
    {
      "type": "node",
      "id": 4847144827,
      "lat": -8.6783206,
      "lon": 115.2579269
    },
    {
      "type": "node",
      "id": 4847144828,
      "lat": -8.6783323,
      "lon": 115.2581333
    },
    {
      "type": "node",
      "id": 4847144829,
      "lat": -8.6783005,
      "lon": 115.2581352
    },
    {
      "type": "node",
      "id": 4847144832,
      "lat": -8.6781122,
      "lon": 115.2581441
    },
    {
      "type": "node",
      "id": 4847144833,
      "lat": -8.6779946,
      "lon": 115.258151
    },
    {
      "type": "node",
      "id": 4847144834,
      "lat": -8.6779894,
      "lon": 115.2580607
    },
    {
      "type": "node",
      "id": 1532746327,
      "lat": -8.6740419,
      "lon": 115.2599212
    },
    {
      "type": "node",
      "id": 1532746356,
      "lat": -8.6741969,
      "lon": 115.259939
    },
    {
      "type": "node",
      "id": 1532746360,
      "lat": -8.674212,
      "lon": 115.2598043
    },
    {
      "type": "node",
      "id": 4180881001,
      "lat": -8.674176,
      "lon": 115.2597333
    },
    {
      "type": "node",
      "id": 4847144759,
      "lat": -8.6740637,
      "lon": 115.2597221
    },
    {
      "type": "node",
      "id": 4847144775,
      "lat": -8.6740603,
      "lon": 115.2597568
    },
    {
      "type": "node",
      "id": 4847144830,
      "lat": -8.6783024,
      "lon": 115.2581699
    },
    {
      "type": "node",
      "id": 4847144831,
      "lat": -8.6781143,
      "lon": 115.2581809
    },
    {
      "type": "node",
      "id": 4847144866,
      "lat": -8.6758497,
      "lon": 115.2593984
    },
    {
      "type": "node",
      "id": 4847144867,
      "lat": -8.675872,
      "lon": 115.2595075
    },
    {
      "type": "node",
      "id": 4847144868,
      "lat": -8.6759812,
      "lon": 115.2594846
    },
    {
      "type": "node",
      "id": 4847144869,
      "lat": -8.6759589,
      "lon": 115.2593756
    },
    {
      "type": "node",
      "id": 4847144870,
      "lat": -8.6759755,
      "lon": 115.2594567
    },
    {
      "type": "node",
      "id": 4847144874,
      "lat": -8.6759609,
      "lon": 115.2593853
    },
    {
      "type": "node",
      "id": 3293422959,
      "lat": -8.6729051,
      "lon": 115.2386318
    },
    {
      "type": "node",
      "id": 3293422960,
      "lat": -8.6728963,
      "lon": 115.2388314
    },
    {
      "type": "node",
      "id": 3293428061,
      "lat": -8.6730347,
      "lon": 115.2388377
    },
    {
      "type": "node",
      "id": 3293428062,
      "lat": -8.6730435,
      "lon": 115.2386381
    },
    {
      "type": "node",
      "id": 3669853135,
      "lat": -8.6735884,
      "lon": 115.2391337
    },
    {
      "type": "node",
      "id": 3669853136,
      "lat": -8.6735915,
      "lon": 115.2393009
    },
    {
      "type": "node",
      "id": 3715179676,
      "lat": -8.6681106,
      "lon": 115.242681
    },
    {
      "type": "node",
      "id": 3715179677,
      "lat": -8.6680986,
      "lon": 115.2428138
    },
    {
      "type": "node",
      "id": 3715179678,
      "lat": -8.6682927,
      "lon": 115.2428317
    },
    {
      "type": "node",
      "id": 3715179679,
      "lat": -8.6683047,
      "lon": 115.242699
    },
    {
      "type": "node",
      "id": 3788526018,
      "lat": -8.6672483,
      "lon": 115.2386689
    },
    {
      "type": "node",
      "id": 3788526019,
      "lat": -8.667248,
      "lon": 115.2386951
    },
    {
      "type": "node",
      "id": 3788526020,
      "lat": -8.6671806,
      "lon": 115.2386943
    },
    {
      "type": "node",
      "id": 3788526021,
      "lat": -8.6671796,
      "lon": 115.2387794
    },
    {
      "type": "node",
      "id": 3788526022,
      "lat": -8.6672626,
      "lon": 115.2387804
    },
    {
      "type": "node",
      "id": 3788526023,
      "lat": -8.6672623,
      "lon": 115.2388053
    },
    {
      "type": "node",
      "id": 3788526024,
      "lat": -8.6671791,
      "lon": 115.2388043
    },
    {
      "type": "node",
      "id": 3788526025,
      "lat": -8.6671783,
      "lon": 115.2388744
    },
    {
      "type": "node",
      "id": 3788526026,
      "lat": -8.6673378,
      "lon": 115.2388763
    },
    {
      "type": "node",
      "id": 3788526027,
      "lat": -8.6673402,
      "lon": 115.23867
    },
    {
      "type": "node",
      "id": 3788526039,
      "lat": -8.6703019,
      "lon": 115.2387619
    },
    {
      "type": "node",
      "id": 3788526040,
      "lat": -8.6703024,
      "lon": 115.2389597
    },
    {
      "type": "node",
      "id": 3788526041,
      "lat": -8.6704026,
      "lon": 115.2389594
    },
    {
      "type": "node",
      "id": 3788526042,
      "lat": -8.6704024,
      "lon": 115.2388778
    },
    {
      "type": "node",
      "id": 3788526043,
      "lat": -8.6704408,
      "lon": 115.2388777
    },
    {
      "type": "node",
      "id": 3788526044,
      "lat": -8.6704405,
      "lon": 115.2387616
    },
    {
      "type": "node",
      "id": 3250239481,
      "lat": -8.6650206,
      "lon": 115.2389298
    },
    {
      "type": "node",
      "id": 3250239482,
      "lat": -8.6651463,
      "lon": 115.2389268
    },
    {
      "type": "node",
      "id": 3250239483,
      "lat": -8.6650185,
      "lon": 115.2395914
    },
    {
      "type": "node",
      "id": 3250239484,
      "lat": -8.6652805,
      "lon": 115.2395922
    },
    {
      "type": "node",
      "id": 3250239485,
      "lat": -8.6652821,
      "lon": 115.23918
    },
    {
      "type": "node",
      "id": 3250239486,
      "lat": -8.6651451,
      "lon": 115.2392023
    },
    {
      "type": "node",
      "id": 3250239487,
      "lat": -8.6650678,
      "lon": 115.2392028
    },
    {
      "type": "node",
      "id": 3250239488,
      "lat": -8.6650668,
      "lon": 115.2395373
    },
    {
      "type": "node",
      "id": 3250239489,
      "lat": -8.6652373,
      "lon": 115.2395378
    },
    {
      "type": "node",
      "id": 3250239490,
      "lat": -8.6652384,
      "lon": 115.2391794
    },
    {
      "type": "node",
      "id": 3250239491,
      "lat": -8.6651694,
      "lon": 115.2391683
    },
    {
      "type": "node",
      "id": 3250239492,
      "lat": -8.6651693,
      "lon": 115.2389243
    },
    {
      "type": "node",
      "id": 3250239494,
      "lat": -8.6651481,
      "lon": 115.2389388
    },
    {
      "type": "node",
      "id": 3250239495,
      "lat": -8.665145,
      "lon": 115.239176
    },
    {
      "type": "node",
      "id": 3715179837,
      "lat": -8.6669159,
      "lon": 115.241976
    },
    {
      "type": "node",
      "id": 3715179838,
      "lat": -8.6667198,
      "lon": 115.2419636
    },
    {
      "type": "node",
      "id": 3715179839,
      "lat": -8.6667312,
      "lon": 115.2417806
    },
    {
      "type": "node",
      "id": 3715179840,
      "lat": -8.6669273,
      "lon": 115.241793
    },
    {
      "type": "node",
      "id": 3780733279,
      "lat": -8.6650204,
      "lon": 115.2389788
    },
    {
      "type": "node",
      "id": 3780733280,
      "lat": -8.6650201,
      "lon": 115.2390794
    },
    {
      "type": "node",
      "id": 3780733351,
      "lat": -8.6656358,
      "lon": 115.2387152
    },
    {
      "type": "node",
      "id": 3780733352,
      "lat": -8.6656344,
      "lon": 115.238845
    },
    {
      "type": "node",
      "id": 3780733353,
      "lat": -8.6656672,
      "lon": 115.2388454
    },
    {
      "type": "node",
      "id": 3780733354,
      "lat": -8.6656651,
      "lon": 115.2390325
    },
    {
      "type": "node",
      "id": 3780733355,
      "lat": -8.6657945,
      "lon": 115.2390339
    },
    {
      "type": "node",
      "id": 3780733356,
      "lat": -8.6657967,
      "lon": 115.2388337
    },
    {
      "type": "node",
      "id": 3780733357,
      "lat": -8.665853,
      "lon": 115.2388343
    },
    {
      "type": "node",
      "id": 3780733358,
      "lat": -8.6658543,
      "lon": 115.2387176
    },
    {
      "type": "node",
      "id": 5577521912,
      "lat": -8.6652843,
      "lon": 115.2389304
    },
    {
      "type": "node",
      "id": 5577521913,
      "lat": -8.6652808,
      "lon": 115.2391719
    },
    {
      "type": "node",
      "id": 5577521914,
      "lat": -8.6652371,
      "lon": 115.2391713
    },
    {
      "type": "node",
      "id": 5430688799,
      "lat": -8.6659091,
      "lon": 115.2503546
    },
    {
      "type": "node",
      "id": 5430688801,
      "lat": -8.6657397,
      "lon": 115.2503224
    },
    {
      "type": "node",
      "id": 5430688803,
      "lat": -8.6658724,
      "lon": 115.2506631
    },
    {
      "type": "node",
      "id": 5430688804,
      "lat": -8.6656978,
      "lon": 115.2506092
    },
    {
      "type": "node",
      "id": 5430688805,
      "lat": -8.6661047,
      "lon": 115.2503403
    },
    {
      "type": "node",
      "id": 5430688806,
      "lat": -8.666059,
      "lon": 115.2507188
    },
    {
      "type": "node",
      "id": 5430688807,
      "lat": -8.6659116,
      "lon": 115.2506981
    },
    {
      "type": "node",
      "id": 5430688808,
      "lat": -8.6659572,
      "lon": 115.2503236
    },
    {
      "type": "node",
      "id": 5040096156,
      "lat": -8.6730621,
      "lon": 115.2586551
    },
    {
      "type": "node",
      "id": 5040096157,
      "lat": -8.6730498,
      "lon": 115.2587653
    },
    {
      "type": "node",
      "id": 5040096158,
      "lat": -8.673116,
      "lon": 115.2587729
    },
    {
      "type": "node",
      "id": 5040096159,
      "lat": -8.6731283,
      "lon": 115.2586627
    },
    {
      "type": "node",
      "id": 3175918957,
      "lat": -8.6590002,
      "lon": 115.239041
    },
    {
      "type": "node",
      "id": 3175921569,
      "lat": -8.6584619,
      "lon": 115.2387647
    },
    {
      "type": "node",
      "id": 3175921570,
      "lat": -8.6584327,
      "lon": 115.2389793
    },
    {
      "type": "node",
      "id": 3175921571,
      "lat": -8.6585971,
      "lon": 115.2390061
    },
    {
      "type": "node",
      "id": 3175921572,
      "lat": -8.6586289,
      "lon": 115.2387969
    },
    {
      "type": "node",
      "id": 3175921573,
      "lat": -8.6588968,
      "lon": 115.2388801
    },
    {
      "type": "node",
      "id": 3175921574,
      "lat": -8.6588649,
      "lon": 115.2390517
    },
    {
      "type": "node",
      "id": 3175921575,
      "lat": -8.6589938,
      "lon": 115.239078
    },
    {
      "type": "node",
      "id": 3175921576,
      "lat": -8.659032,
      "lon": 115.2389096
    },
    {
      "type": "node",
      "id": 3175921577,
      "lat": -8.6588755,
      "lon": 115.2391349
    },
    {
      "type": "node",
      "id": 3175921578,
      "lat": -8.6589312,
      "lon": 115.2391456
    },
    {
      "type": "node",
      "id": 3175921579,
      "lat": -8.6589471,
      "lon": 115.2390678
    },
    {
      "type": "node",
      "id": 3175921580,
      "lat": -8.6588888,
      "lon": 115.2390571
    },
    {
      "type": "node",
      "id": 3673374682,
      "lat": -8.6589334,
      "lon": 115.2396207
    },
    {
      "type": "node",
      "id": 3673374683,
      "lat": -8.6588566,
      "lon": 115.2401298
    },
    {
      "type": "node",
      "id": 3673374684,
      "lat": -8.6587907,
      "lon": 115.2401196
    },
    {
      "type": "node",
      "id": 3673374685,
      "lat": -8.6588413,
      "lon": 115.2397841
    },
    {
      "type": "node",
      "id": 3673374686,
      "lat": -8.6587059,
      "lon": 115.2397632
    },
    {
      "type": "node",
      "id": 3673374687,
      "lat": -8.6586726,
      "lon": 115.2399835
    },
    {
      "type": "node",
      "id": 3673374688,
      "lat": -8.6585629,
      "lon": 115.2399666
    },
    {
      "type": "node",
      "id": 3673374689,
      "lat": -8.658622,
      "lon": 115.2395754
    },
    {
      "type": "node",
      "id": 3673374690,
      "lat": -8.6587337,
      "lon": 115.2395927
    },
    {
      "type": "node",
      "id": 3673374691,
      "lat": -8.6587276,
      "lon": 115.2396329
    },
    {
      "type": "node",
      "id": 3673374692,
      "lat": -8.6588198,
      "lon": 115.2396471
    },
    {
      "type": "node",
      "id": 3673374693,
      "lat": -8.6588254,
      "lon": 115.23961
    },
    {
      "type": "node",
      "id": 3673374694,
      "lat": -8.6589076,
      "lon": 115.2396227
    },
    {
      "type": "node",
      "id": 3673374695,
      "lat": -8.6589274,
      "lon": 115.2394914
    },
    {
      "type": "node",
      "id": 3673374696,
      "lat": -8.6590158,
      "lon": 115.2395051
    },
    {
      "type": "node",
      "id": 3673374697,
      "lat": -8.6589969,
      "lon": 115.2396305
    },
    {
      "type": "node",
      "id": 3673374719,
      "lat": -8.6586252,
      "lon": 115.238821
    },
    {
      "type": "node",
      "id": 3673374722,
      "lat": -8.658599,
      "lon": 115.2389934
    },
    {
      "type": "node",
      "id": 3673374832,
      "lat": -8.6571559,
      "lon": 115.2390794
    },
    {
      "type": "node",
      "id": 3673374833,
      "lat": -8.6571452,
      "lon": 115.2393619
    },
    {
      "type": "node",
      "id": 3673374834,
      "lat": -8.657226,
      "lon": 115.239365
    },
    {
      "type": "node",
      "id": 3673374835,
      "lat": -8.6572368,
      "lon": 115.2390826
    },
    {
      "type": "node",
      "id": 3673374841,
      "lat": -8.6571532,
      "lon": 115.239152
    },
    {
      "type": "node",
      "id": 4366360010,
      "lat": -8.6575634,
      "lon": 115.2549244
    },
    {
      "type": "node",
      "id": 5040096376,
      "lat": -8.6575684,
      "lon": 115.2551037
    },
    {
      "type": "node",
      "id": 5040096377,
      "lat": -8.6576249,
      "lon": 115.2551021
    },
    {
      "type": "node",
      "id": 5040096378,
      "lat": -8.6576214,
      "lon": 115.2549768
    },
    {
      "type": "node",
      "id": 5040096379,
      "lat": -8.657682,
      "lon": 115.2549751
    },
    {
      "type": "node",
      "id": 5040096380,
      "lat": -8.6576805,
      "lon": 115.254921
    },
    {
      "type": "node",
      "id": 4422062509,
      "lat": -8.6524695,
      "lon": 115.2528381
    },
    {
      "type": "node",
      "id": 4422062510,
      "lat": -8.6523652,
      "lon": 115.2531973
    },
    {
      "type": "node",
      "id": 4422062511,
      "lat": -8.6524397,
      "lon": 115.2532194
    },
    {
      "type": "node",
      "id": 4422062512,
      "lat": -8.6524207,
      "lon": 115.2532848
    },
    {
      "type": "node",
      "id": 4422062513,
      "lat": -8.6527261,
      "lon": 115.2533755
    },
    {
      "type": "node",
      "id": 4422062514,
      "lat": -8.6527477,
      "lon": 115.2533011
    },
    {
      "type": "node",
      "id": 4422062515,
      "lat": -8.652804,
      "lon": 115.2533179
    },
    {
      "type": "node",
      "id": 4422062516,
      "lat": -8.6529043,
      "lon": 115.2529727
    },
    {
      "type": "node",
      "id": 4422062517,
      "lat": -8.6528015,
      "lon": 115.2529422
    },
    {
      "type": "node",
      "id": 4422062518,
      "lat": -8.6528173,
      "lon": 115.2528877
    },
    {
      "type": "node",
      "id": 4422062519,
      "lat": -8.6525406,
      "lon": 115.2528055
    },
    {
      "type": "node",
      "id": 4422062520,
      "lat": -8.6525263,
      "lon": 115.2528549
    },
    {
      "type": "node",
      "id": 3851362228,
      "lat": -8.6372266,
      "lon": 115.2495598
    },
    {
      "type": "node",
      "id": 3851362229,
      "lat": -8.6376812,
      "lon": 115.2495886
    },
    {
      "type": "node",
      "id": 3851362230,
      "lat": -8.6376713,
      "lon": 115.2497496
    },
    {
      "type": "node",
      "id": 3851362231,
      "lat": -8.6372166,
      "lon": 115.2497208
    },
    {
      "type": "node",
      "id": 3832511872,
      "lat": -8.6391015,
      "lon": 115.2532354
    },
    {
      "type": "node",
      "id": 3832511873,
      "lat": -8.6392502,
      "lon": 115.2533478
    },
    {
      "type": "node",
      "id": 3832511874,
      "lat": -8.6392301,
      "lon": 115.2533787
    },
    {
      "type": "node",
      "id": 3832511875,
      "lat": -8.6390726,
      "lon": 115.2532787
    },
    {
      "type": "node",
      "id": 3832511876,
      "lat": -8.6390604,
      "lon": 115.2532956
    },
    {
      "type": "node",
      "id": 3832511877,
      "lat": -8.6389755,
      "lon": 115.2532469
    },
    {
      "type": "node",
      "id": 3832511878,
      "lat": -8.639049,
      "lon": 115.2531885
    },
    {
      "type": "node",
      "id": 4423599857,
      "lat": -8.6401465,
      "lon": 115.2537803
    },
    {
      "type": "node",
      "id": 4423599858,
      "lat": -8.6400974,
      "lon": 115.2539798
    },
    {
      "type": "node",
      "id": 4423599859,
      "lat": -8.6401542,
      "lon": 115.253994
    },
    {
      "type": "node",
      "id": 4423599860,
      "lat": -8.6401822,
      "lon": 115.2538803
    },
    {
      "type": "node",
      "id": 4423599861,
      "lat": -8.6402124,
      "lon": 115.2538879
    },
    {
      "type": "node",
      "id": 4423599862,
      "lat": -8.6402335,
      "lon": 115.2538022
    },
    {
      "type": "way",
      "id": 367452366,
      "nodes": [
        3713738854,
        9797666412,
        3713738855,
        4571149813,
        4571149818,
        3713738856,
        3779315668,
        3713738854
      ]
    },
    {
      "type": "way",
      "id": 367452367,
      "nodes": [
        3713738858,
        3713738859,
        3713738860,
        3713738861,
        3713738858
      ]
    },
    {
      "type": "way",
      "id": 374533474,
      "nodes": [
        3779293138,
        3779293139,
        3779293140,
        3779293141,
        3779293146,
        3779293147,
        3779293138
      ]
    },
    {
      "type": "way",
      "id": 374533475,
      "nodes": [
        3779293142,
        3779293143,
        3779293144,
        3779293145,
        3779293142
      ]
    }
  ]
}